{
"type": "FeatureCollection",
"name": "OxREP_Hispania_Fe_Hierro",
"crs": { "type": "name", "properties": { "name": "urn:ogc:def:crs:OGC:1.3:CRS84" } },
"features": [
{ "type": "Feature", "properties": { "mineID": 1, "site": "Aljustrel", "ancientName": "Vipasca", "province": "Lusitania", "country": "Portugal", "region": "Beja", "miningDistrict": "Alentejo", "romanianRANID": null, "sanchezPalenciaAndOrejasID": null, "domergueID": "POR 2", "spainMapSheet": 538.0, "lambertX": 197.6, "lambertY": 99.6, "latitude": 37.880874, "longitude": -8.175981, "coordinateAccuracy": 1000.0, "locationDataSource": "Google Earth", "locationNotes": null, "notBeforeOpeningDate": null, "notAfterOpeningDate": null, "notBeforeClosingDate": null, "notAfterClosingDate": null, "inUseDate": null, "metalMinedGold": "?", "metalMinedSilver": 1.0, "metalMinedLead": 0.0, "metalMinedCopper": 1.0, "metalMinedTin": 0.0, "metalMinedIron": 1.0, "metalMinedMercuryCinnabar": 0.0, "metalMinedZinc": 0.0, "metalMinedOther": 0.0, "description": "A copper mining district with also extraction of silver, iron, and perhaps gold. Two bronze tablets were found here detailing the laws and regulations as well as the imperial administration's role in managing the town, granting leases, and overseeing the mining works.", "references": "Domergue 1983: 5-193; Domergue 1990: 62", "techniqueOpencast": 0.0, "techniqueUnderground": 1.0, "techniqueHydraulic": "FALSE", "techniqueHushing": "FALSE", "techniqueGroundSluicing": "FALSE", "techniqueRuinaMontium": 0.0, "techniqueRakeComb": 0.0, "techniqueGoldWashing": 0.0, "techniqueOther": 0.0, "notes": null, "geology": "Pyrite", "depositType": null, "exploitationType": null, "Flag_Au_Oro": 1, "Status_Au_Oro": "Hipotetico", "Flag_Ag_Plata": 1, "Status_Ag_Plata": "Confirmado", "Flag_Cu_Cobre": 1, "Status_Cu_Cobre": "Confirmado", "Flag_Pb_Plomo": 0, "Status_Pb_Plomo": "No", "Flag_Hg_Cinabrio": 0, "Status_Hg_Cinabrio": "No", "Flag_Sn_Estano": 0, "Status_Sn_Estano": "No", "Flag_Fe_Hierro": 1, "Status_Fe_Hierro": "Confirmado", "Tech_Ruina_Montium": 0, "Tech_Subterranea": 1, "Tech_Cielo_Abierto": 0, "Tech_Lavado_Placer": 0, "Certainty_Spatial": 0.7, "Certainty_Archaeological": 0.9, "Certainty_Metallogenic": 1.0, "Certainty_Score": 0.845, "Certainty_Grade": "Alta Certeza (Grado I)" }, "geometry": { "type": "Point", "coordinates": [ -8.175981, 37.880874 ] } },
{ "type": "Feature", "properties": { "mineID": 7, "site": "Cabeço de Mua", "ancientName": null, "province": "Hispania Tarraconensis", "country": "Portugal", "region": "Braga", "miningDistrict": "Trás-os-montes", "romanianRANID": null, "sanchezPalenciaAndOrejasID": null, "domergueID": "POR 13", "spainMapSheet": 119.0, "lambertX": 298.7, "lambertY": 470.0, "latitude": 41.19318578, "longitude": -6.956601638, "coordinateAccuracy": null, "locationDataSource": null, "locationNotes": null, "notBeforeOpeningDate": null, "notAfterOpeningDate": null, "notBeforeClosingDate": null, "notAfterClosingDate": null, "inUseDate": null, "metalMinedGold": "FALSE", "metalMinedSilver": 0.0, "metalMinedLead": 0.0, "metalMinedCopper": 0.0, "metalMinedTin": 0.0, "metalMinedIron": 1.0, "metalMinedMercuryCinnabar": 0.0, "metalMinedZinc": 0.0, "metalMinedOther": 0.0, "description": null, "references": "Domergue 1990: 41", "techniqueOpencast": null, "techniqueUnderground": null, "techniqueHydraulic": "FALSE", "techniqueHushing": "FALSE", "techniqueGroundSluicing": "FALSE", "techniqueRuinaMontium": 0.0, "techniqueRakeComb": 0.0, "techniqueGoldWashing": 0.0, "techniqueOther": null, "notes": null, "geology": "Hard rock", "depositType": "Primary", "exploitationType": null, "Flag_Au_Oro": 0, "Status_Au_Oro": "No", "Flag_Ag_Plata": 0, "Status_Ag_Plata": "No", "Flag_Cu_Cobre": 0, "Status_Cu_Cobre": "No", "Flag_Pb_Plomo": 0, "Status_Pb_Plomo": "No", "Flag_Hg_Cinabrio": 0, "Status_Hg_Cinabrio": "No", "Flag_Sn_Estano": 0, "Status_Sn_Estano": "No", "Flag_Fe_Hierro": 1, "Status_Fe_Hierro": "Confirmado", "Tech_Ruina_Montium": 0, "Tech_Subterranea": 0, "Tech_Cielo_Abierto": 0, "Tech_Lavado_Placer": 0, "Certainty_Spatial": 0.5, "Certainty_Archaeological": 0.9, "Certainty_Metallogenic": 1.0, "Certainty_Score": 0.765, "Certainty_Grade": "Media Certeza (Grado II)" }, "geometry": { "type": "Point", "coordinates": [ -6.956601638, 41.19318578 ] } },
{ "type": "Feature", "properties": { "mineID": 133, "site": "Nogueirinha", "ancientName": null, "province": "Lusitania", "country": "Portugal", "region": "Évora", "miningDistrict": "Alentejo", "romanianRANID": null, "sanchezPalenciaAndOrejasID": null, "domergueID": "POR 22", "spainMapSheet": 459.0, "lambertX": 200.4, "lambertY": 174.0, "latitude": 38.53331052, "longitude": -8.128499598, "coordinateAccuracy": null, "locationDataSource": null, "locationNotes": null, "notBeforeOpeningDate": null, "notAfterOpeningDate": null, "notBeforeClosingDate": null, "notAfterClosingDate": null, "inUseDate": null, "metalMinedGold": "FALSE", "metalMinedSilver": 0.0, "metalMinedLead": 0.0, "metalMinedCopper": 0.0, "metalMinedTin": 0.0, "metalMinedIron": 1.0, "metalMinedMercuryCinnabar": 0.0, "metalMinedZinc": 0.0, "metalMinedOther": 0.0, "description": null, "references": "Domergue 1990: 62", "techniqueOpencast": null, "techniqueUnderground": null, "techniqueHydraulic": "FALSE", "techniqueHushing": "FALSE", "techniqueGroundSluicing": "FALSE", "techniqueRuinaMontium": 0.0, "techniqueRakeComb": 0.0, "techniqueGoldWashing": 0.0, "techniqueOther": null, "notes": null, "geology": null, "depositType": null, "exploitationType": null, "Flag_Au_Oro": 0, "Status_Au_Oro": "No", "Flag_Ag_Plata": 0, "Status_Ag_Plata": "No", "Flag_Cu_Cobre": 0, "Status_Cu_Cobre": "No", "Flag_Pb_Plomo": 0, "Status_Pb_Plomo": "No", "Flag_Hg_Cinabrio": 0, "Status_Hg_Cinabrio": "No", "Flag_Sn_Estano": 0, "Status_Sn_Estano": "No", "Flag_Fe_Hierro": 1, "Status_Fe_Hierro": "Confirmado", "Tech_Ruina_Montium": 0, "Tech_Subterranea": 0, "Tech_Cielo_Abierto": 0, "Tech_Lavado_Placer": 0, "Certainty_Spatial": 0.5, "Certainty_Archaeological": 0.9, "Certainty_Metallogenic": 1.0, "Certainty_Score": 0.765, "Certainty_Grade": "Media Certeza (Grado II)" }, "geometry": { "type": "Point", "coordinates": [ -8.128499598, 38.53331052 ] } },
{ "type": "Feature", "properties": { "mineID": 162, "site": "Zambujal", "ancientName": null, "province": "Lusitania", "country": "Portugal", "region": "Beja", "miningDistrict": "Alentejo", "romanianRANID": null, "sanchezPalenciaAndOrejasID": null, "domergueID": "POR 4", "spainMapSheet": 488.0, "lambertX": 209.8, "lambertY": 143.9, "latitude": 38.26209908, "longitude": -8.021107841, "coordinateAccuracy": null, "locationDataSource": null, "locationNotes": null, "notBeforeOpeningDate": null, "notAfterOpeningDate": null, "notBeforeClosingDate": null, "notAfterClosingDate": null, "inUseDate": null, "metalMinedGold": "FALSE", "metalMinedSilver": 0.0, "metalMinedLead": 0.0, "metalMinedCopper": 0.0, "metalMinedTin": 0.0, "metalMinedIron": 1.0, "metalMinedMercuryCinnabar": 0.0, "metalMinedZinc": 0.0, "metalMinedOther": 0.0, "description": null, "references": "Domergue 1990: 62", "techniqueOpencast": null, "techniqueUnderground": null, "techniqueHydraulic": "FALSE", "techniqueHushing": "FALSE", "techniqueGroundSluicing": "FALSE", "techniqueRuinaMontium": 0.0, "techniqueRakeComb": 0.0, "techniqueGoldWashing": 0.0, "techniqueOther": null, "notes": null, "geology": null, "depositType": null, "exploitationType": null, "Flag_Au_Oro": 0, "Status_Au_Oro": "No", "Flag_Ag_Plata": 0, "Status_Ag_Plata": "No", "Flag_Cu_Cobre": 0, "Status_Cu_Cobre": "No", "Flag_Pb_Plomo": 0, "Status_Pb_Plomo": "No", "Flag_Hg_Cinabrio": 0, "Status_Hg_Cinabrio": "No", "Flag_Sn_Estano": 0, "Status_Sn_Estano": "No", "Flag_Fe_Hierro": 1, "Status_Fe_Hierro": "Confirmado", "Tech_Ruina_Montium": 0, "Tech_Subterranea": 0, "Tech_Cielo_Abierto": 0, "Tech_Lavado_Placer": 0, "Certainty_Spatial": 0.5, "Certainty_Archaeological": 0.9, "Certainty_Metallogenic": 1.0, "Certainty_Score": 0.765, "Certainty_Grade": "Media Certeza (Grado II)" }, "geometry": { "type": "Point", "coordinates": [ -8.021107841, 38.26209908 ] } },
{ "type": "Feature", "properties": { "mineID": 451, "site": "Cabo de la Nao", "ancientName": null, "province": "Hispania Tarraconensis", "country": "Spain", "region": "Alicante", "miningDistrict": null, "romanianRANID": null, "sanchezPalenciaAndOrejasID": null, "domergueID": "A 1", "spainMapSheet": 823.0, "lambertX": 940.0, "lambertY": 468.0, "latitude": 38.74237138, "longitude": 0.22764936, "coordinateAccuracy": 100.0, "locationDataSource": "Converted in QGIS from Lambert coords, Madrid 1870", "locationNotes": null, "notBeforeOpeningDate": -330.0, "notAfterOpeningDate": null, "notBeforeClosingDate": null, "notAfterClosingDate": 300.0, "inUseDate": "Hellenistic-Republican, Roman", "metalMinedGold": "FALSE", "metalMinedSilver": 0.0, "metalMinedLead": 0.0, "metalMinedCopper": 0.0, "metalMinedTin": 0.0, "metalMinedIron": 1.0, "metalMinedMercuryCinnabar": 0.0, "metalMinedZinc": 0.0, "metalMinedOther": 0.0, "description": null, "references": "Domergue 1990: 64", "techniqueOpencast": null, "techniqueUnderground": null, "techniqueHydraulic": "FALSE", "techniqueHushing": "FALSE", "techniqueGroundSluicing": "FALSE", "techniqueRuinaMontium": 0.0, "techniqueRakeComb": 0.0, "techniqueGoldWashing": 0.0, "techniqueOther": null, "notes": null, "geology": null, "depositType": null, "exploitationType": null, "Flag_Au_Oro": 0, "Status_Au_Oro": "No", "Flag_Ag_Plata": 0, "Status_Ag_Plata": "No", "Flag_Cu_Cobre": 0, "Status_Cu_Cobre": "No", "Flag_Pb_Plomo": 0, "Status_Pb_Plomo": "No", "Flag_Hg_Cinabrio": 0, "Status_Hg_Cinabrio": "No", "Flag_Sn_Estano": 0, "Status_Sn_Estano": "No", "Flag_Fe_Hierro": 1, "Status_Fe_Hierro": "Confirmado", "Tech_Ruina_Montium": 0, "Tech_Subterranea": 0, "Tech_Cielo_Abierto": 0, "Tech_Lavado_Placer": 0, "Certainty_Spatial": 1.0, "Certainty_Archaeological": 0.9, "Certainty_Metallogenic": 1.0, "Certainty_Score": 0.965, "Certainty_Grade": "Alta Certeza (Grado I)" }, "geometry": { "type": "Point", "coordinates": [ 0.22764936, 38.74237138 ] } },
{ "type": "Feature", "properties": { "mineID": 503, "site": "Cerro de la Mina", "ancientName": null, "province": "Hispania Tarraconensis", "country": "Spain", "region": "Cuenca", "miningDistrict": null, "romanianRANID": null, "sanchezPalenciaAndOrejasID": null, "domergueID": "CU 2", "spainMapSheet": 665.0, "lambertX": 802.4, "lambertY": 584.0, "latitude": 39.83148876, "longitude": -1.32055691, "coordinateAccuracy": 100.0, "locationDataSource": "Converted in QGIS from Lambert coords, Madrid 1870", "locationNotes": null, "notBeforeOpeningDate": null, "notAfterOpeningDate": null, "notBeforeClosingDate": null, "notAfterClosingDate": null, "inUseDate": null, "metalMinedGold": "FALSE", "metalMinedSilver": 0.0, "metalMinedLead": 0.0, "metalMinedCopper": 0.0, "metalMinedTin": 0.0, "metalMinedIron": 1.0, "metalMinedMercuryCinnabar": 0.0, "metalMinedZinc": 0.0, "metalMinedOther": 0.0, "description": null, "references": "Domergue 1990: 64", "techniqueOpencast": null, "techniqueUnderground": null, "techniqueHydraulic": "FALSE", "techniqueHushing": "FALSE", "techniqueGroundSluicing": "FALSE", "techniqueRuinaMontium": 0.0, "techniqueRakeComb": 0.0, "techniqueGoldWashing": 0.0, "techniqueOther": null, "notes": null, "geology": null, "depositType": null, "exploitationType": null, "Flag_Au_Oro": 0, "Status_Au_Oro": "No", "Flag_Ag_Plata": 0, "Status_Ag_Plata": "No", "Flag_Cu_Cobre": 0, "Status_Cu_Cobre": "No", "Flag_Pb_Plomo": 0, "Status_Pb_Plomo": "No", "Flag_Hg_Cinabrio": 0, "Status_Hg_Cinabrio": "No", "Flag_Sn_Estano": 0, "Status_Sn_Estano": "No", "Flag_Fe_Hierro": 1, "Status_Fe_Hierro": "Confirmado", "Tech_Ruina_Montium": 0, "Tech_Subterranea": 0, "Tech_Cielo_Abierto": 0, "Tech_Lavado_Placer": 0, "Certainty_Spatial": 1.0, "Certainty_Archaeological": 0.9, "Certainty_Metallogenic": 1.0, "Certainty_Score": 0.965, "Certainty_Grade": "Alta Certeza (Grado I)" }, "geometry": { "type": "Point", "coordinates": [ -1.32055691, 39.83148876 ] } },
{ "type": "Feature", "properties": { "mineID": 512, "site": "Cerro del Conjuro", "ancientName": null, "province": "Hispania Baetica", "country": "Spain", "region": "Granada", "miningDistrict": "Almería", "romanianRANID": null, "sanchezPalenciaAndOrejasID": null, "domergueID": "GR 1", "spainMapSheet": 1042.0, "lambertX": 636.3, "lambertY": 259.8, "latitude": 36.93229745, "longitude": -3.28059057, "coordinateAccuracy": 100.0, "locationDataSource": "Converted in QGIS from Lambert coords, Madrid 1870", "locationNotes": null, "notBeforeOpeningDate": null, "notAfterOpeningDate": null, "notBeforeClosingDate": null, "notAfterClosingDate": null, "inUseDate": null, "metalMinedGold": "FALSE", "metalMinedSilver": 0.0, "metalMinedLead": 0.0, "metalMinedCopper": 0.0, "metalMinedTin": 0.0, "metalMinedIron": 1.0, "metalMinedMercuryCinnabar": 0.0, "metalMinedZinc": 0.0, "metalMinedOther": 0.0, "description": null, "references": "Domergue 1990: 64", "techniqueOpencast": null, "techniqueUnderground": null, "techniqueHydraulic": "FALSE", "techniqueHushing": "FALSE", "techniqueGroundSluicing": "FALSE", "techniqueRuinaMontium": 0.0, "techniqueRakeComb": 0.0, "techniqueGoldWashing": 0.0, "techniqueOther": null, "notes": null, "geology": null, "depositType": null, "exploitationType": null, "Flag_Au_Oro": 0, "Status_Au_Oro": "No", "Flag_Ag_Plata": 0, "Status_Ag_Plata": "No", "Flag_Cu_Cobre": 0, "Status_Cu_Cobre": "No", "Flag_Pb_Plomo": 0, "Status_Pb_Plomo": "No", "Flag_Hg_Cinabrio": 0, "Status_Hg_Cinabrio": "No", "Flag_Sn_Estano": 0, "Status_Sn_Estano": "No", "Flag_Fe_Hierro": 1, "Status_Fe_Hierro": "Confirmado", "Tech_Ruina_Montium": 0, "Tech_Subterranea": 0, "Tech_Cielo_Abierto": 0, "Tech_Lavado_Placer": 0, "Certainty_Spatial": 1.0, "Certainty_Archaeological": 0.9, "Certainty_Metallogenic": 1.0, "Certainty_Score": 0.965, "Certainty_Grade": "Alta Certeza (Grado I)" }, "geometry": { "type": "Point", "coordinates": [ -3.28059057, 36.93229745 ] } },
{ "type": "Feature", "properties": { "mineID": 516, "site": "Cerro del Hierro", "ancientName": null, "province": "Hispania Baetica", "country": "Spain", "region": "Sevilla", "miningDistrict": "Sevilla", "romanianRANID": null, "sanchezPalenciaAndOrejasID": null, "domergueID": "SE 6", "spainMapSheet": 920.0, "lambertX": 430.8, "lambertY": 274.4, "latitude": 37.04831911, "longitude": -5.589874277, "coordinateAccuracy": 100.0, "locationDataSource": "Converted in QGIS from Lambert coords, Madrid 1870", "locationNotes": null, "notBeforeOpeningDate": null, "notAfterOpeningDate": null, "notBeforeClosingDate": null, "notAfterClosingDate": null, "inUseDate": null, "metalMinedGold": "FALSE", "metalMinedSilver": 0.0, "metalMinedLead": 0.0, "metalMinedCopper": 0.0, "metalMinedTin": 0.0, "metalMinedIron": 1.0, "metalMinedMercuryCinnabar": 0.0, "metalMinedZinc": 0.0, "metalMinedOther": 0.0, "description": null, "references": "Domergue 1990: 48", "techniqueOpencast": null, "techniqueUnderground": null, "techniqueHydraulic": "FALSE", "techniqueHushing": "FALSE", "techniqueGroundSluicing": "FALSE", "techniqueRuinaMontium": 0.0, "techniqueRakeComb": 0.0, "techniqueGoldWashing": 0.0, "techniqueOther": null, "notes": null, "geology": "Hard rock", "depositType": "Primary", "exploitationType": null, "Flag_Au_Oro": 0, "Status_Au_Oro": "No", "Flag_Ag_Plata": 0, "Status_Ag_Plata": "No", "Flag_Cu_Cobre": 0, "Status_Cu_Cobre": "No", "Flag_Pb_Plomo": 0, "Status_Pb_Plomo": "No", "Flag_Hg_Cinabrio": 0, "Status_Hg_Cinabrio": "No", "Flag_Sn_Estano": 0, "Status_Sn_Estano": "No", "Flag_Fe_Hierro": 1, "Status_Fe_Hierro": "Confirmado", "Tech_Ruina_Montium": 0, "Tech_Subterranea": 0, "Tech_Cielo_Abierto": 0, "Tech_Lavado_Placer": 0, "Certainty_Spatial": 1.0, "Certainty_Archaeological": 0.9, "Certainty_Metallogenic": 1.0, "Certainty_Score": 0.965, "Certainty_Grade": "Alta Certeza (Grado I)" }, "geometry": { "type": "Point", "coordinates": [ -5.589874277, 37.04831911 ] } },
{ "type": "Feature", "properties": { "mineID": 577, "site": "Cueva del Hierro", "ancientName": null, "province": "Hispania Tarraconensis", "country": "Spain", "region": "Cuenca", "miningDistrict": null, "romanianRANID": null, "sanchezPalenciaAndOrejasID": null, "domergueID": null, "spainMapSheet": null, "lambertX": null, "lambertY": null, "latitude": 40.58513, "longitude": -2.037399, "coordinateAccuracy": 0.0, "locationDataSource": "http://www.cuevadelhierro.com/como-llegar-accesos-a-la-mina/", "locationNotes": null, "notBeforeOpeningDate": null, "notAfterOpeningDate": null, "notBeforeClosingDate": null, "notAfterClosingDate": null, "inUseDate": null, "metalMinedGold": "FALSE", "metalMinedSilver": 0.0, "metalMinedLead": 0.0, "metalMinedCopper": 0.0, "metalMinedTin": 0.0, "metalMinedIron": 1.0, "metalMinedMercuryCinnabar": 0.0, "metalMinedZinc": 0.0, "metalMinedOther": 0.0, "description": null, "references": "http://www.cuevadelhierro.com/", "techniqueOpencast": 0.0, "techniqueUnderground": 1.0, "techniqueHydraulic": "FALSE", "techniqueHushing": "FALSE", "techniqueGroundSluicing": "FALSE", "techniqueRuinaMontium": 0.0, "techniqueRakeComb": 0.0, "techniqueGoldWashing": 0.0, "techniqueOther": 0.0, "notes": null, "geology": null, "depositType": null, "exploitationType": null, "Flag_Au_Oro": 0, "Status_Au_Oro": "No", "Flag_Ag_Plata": 0, "Status_Ag_Plata": "No", "Flag_Cu_Cobre": 0, "Status_Cu_Cobre": "No", "Flag_Pb_Plomo": 0, "Status_Pb_Plomo": "No", "Flag_Hg_Cinabrio": 0, "Status_Hg_Cinabrio": "No", "Flag_Sn_Estano": 0, "Status_Sn_Estano": "No", "Flag_Fe_Hierro": 1, "Status_Fe_Hierro": "Confirmado", "Tech_Ruina_Montium": 0, "Tech_Subterranea": 1, "Tech_Cielo_Abierto": 0, "Tech_Lavado_Placer": 0, "Certainty_Spatial": 1.0, "Certainty_Archaeological": 0.75, "Certainty_Metallogenic": 1.0, "Certainty_Score": 0.9125, "Certainty_Grade": "Alta Certeza (Grado I)" }, "geometry": { "type": "Point", "coordinates": [ -2.037399, 40.58513 ] } },
{ "type": "Feature", "properties": { "mineID": 655, "site": "El Pedroso", "ancientName": null, "province": "Hispania Baetica", "country": "Spain", "region": "Sevilla", "miningDistrict": "Sevilla", "romanianRANID": null, "sanchezPalenciaAndOrejasID": null, "domergueID": "SE 11", "spainMapSheet": 920.0, "lambertX": 416.4, "lambertY": 364.4, "latitude": 37.85630479, "longitude": -5.775372282, "coordinateAccuracy": 100.0, "locationDataSource": "Converted in QGIS from Lambert coords, Madrid 1870", "locationNotes": null, "notBeforeOpeningDate": null, "notAfterOpeningDate": null, "notBeforeClosingDate": null, "notAfterClosingDate": null, "inUseDate": null, "metalMinedGold": "FALSE", "metalMinedSilver": 0.0, "metalMinedLead": 0.0, "metalMinedCopper": 0.0, "metalMinedTin": 0.0, "metalMinedIron": 1.0, "metalMinedMercuryCinnabar": 0.0, "metalMinedZinc": 0.0, "metalMinedOther": 0.0, "description": null, "references": "Domergue 1990: 48", "techniqueOpencast": null, "techniqueUnderground": null, "techniqueHydraulic": "FALSE", "techniqueHushing": "FALSE", "techniqueGroundSluicing": "FALSE", "techniqueRuinaMontium": 0.0, "techniqueRakeComb": 0.0, "techniqueGoldWashing": 0.0, "techniqueOther": null, "notes": null, "geology": "Hard rock", "depositType": "Primary", "exploitationType": null, "Flag_Au_Oro": 0, "Status_Au_Oro": "No", "Flag_Ag_Plata": 0, "Status_Ag_Plata": "No", "Flag_Cu_Cobre": 0, "Status_Cu_Cobre": "No", "Flag_Pb_Plomo": 0, "Status_Pb_Plomo": "No", "Flag_Hg_Cinabrio": 0, "Status_Hg_Cinabrio": "No", "Flag_Sn_Estano": 0, "Status_Sn_Estano": "No", "Flag_Fe_Hierro": 1, "Status_Fe_Hierro": "Confirmado", "Tech_Ruina_Montium": 0, "Tech_Subterranea": 0, "Tech_Cielo_Abierto": 0, "Tech_Lavado_Placer": 0, "Certainty_Spatial": 1.0, "Certainty_Archaeological": 0.9, "Certainty_Metallogenic": 1.0, "Certainty_Score": 0.965, "Certainty_Grade": "Alta Certeza (Grado I)" }, "geometry": { "type": "Point", "coordinates": [ -5.775372282, 37.85630479 ] } },
{ "type": "Feature", "properties": { "mineID": 759, "site": "La Carrasquilla", "ancientName": null, "province": "Hispania Baetica", "country": "Spain", "region": "Murcia", "miningDistrict": "Almería", "romanianRANID": null, "sanchezPalenciaAndOrejasID": null, "domergueID": "MU 9", "spainMapSheet": 975.0, "lambertX": 782.4, "lambertY": 331.7, "latitude": 37.56189619, "longitude": -1.622756111, "coordinateAccuracy": 100.0, "locationDataSource": "Converted in QGIS from Lambert coords, Madrid 1870", "locationNotes": null, "notBeforeOpeningDate": null, "notAfterOpeningDate": null, "notBeforeClosingDate": null, "notAfterClosingDate": null, "inUseDate": null, "metalMinedGold": "FALSE", "metalMinedSilver": 0.0, "metalMinedLead": 0.0, "metalMinedCopper": 0.0, "metalMinedTin": 0.0, "metalMinedIron": 1.0, "metalMinedMercuryCinnabar": 0.0, "metalMinedZinc": 0.0, "metalMinedOther": 0.0, "description": null, "references": "Domergue 1990: 64", "techniqueOpencast": null, "techniqueUnderground": null, "techniqueHydraulic": "FALSE", "techniqueHushing": "FALSE", "techniqueGroundSluicing": "FALSE", "techniqueRuinaMontium": 0.0, "techniqueRakeComb": 0.0, "techniqueGoldWashing": 0.0, "techniqueOther": null, "notes": null, "geology": null, "depositType": null, "exploitationType": null, "Flag_Au_Oro": 0, "Status_Au_Oro": "No", "Flag_Ag_Plata": 0, "Status_Ag_Plata": "No", "Flag_Cu_Cobre": 0, "Status_Cu_Cobre": "No", "Flag_Pb_Plomo": 0, "Status_Pb_Plomo": "No", "Flag_Hg_Cinabrio": 0, "Status_Hg_Cinabrio": "No", "Flag_Sn_Estano": 0, "Status_Sn_Estano": "No", "Flag_Fe_Hierro": 1, "Status_Fe_Hierro": "Confirmado", "Tech_Ruina_Montium": 0, "Tech_Subterranea": 0, "Tech_Cielo_Abierto": 0, "Tech_Lavado_Placer": 0, "Certainty_Spatial": 1.0, "Certainty_Archaeological": 0.9, "Certainty_Metallogenic": 1.0, "Certainty_Score": 0.965, "Certainty_Grade": "Alta Certeza (Grado I)" }, "geometry": { "type": "Point", "coordinates": [ -1.622756111, 37.56189619 ] } },
{ "type": "Feature", "properties": { "mineID": 1001, "site": "Monte Triano", "ancientName": null, "province": "Hispania Tarraconensis", "country": "Spain", "region": "Bilbao", "miningDistrict": null, "romanianRANID": null, "sanchezPalenciaAndOrejasID": null, "domergueID": "BI 2", "spainMapSheet": 61.0, "lambertX": 650.6, "lambertY": 964.5, "latitude": 43.28233686, "longitude": -3.06484578, "coordinateAccuracy": 100.0, "locationDataSource": "Converted in QGIS from Lambert coords, Madrid 1870", "locationNotes": null, "notBeforeOpeningDate": null, "notAfterOpeningDate": null, "notBeforeClosingDate": null, "notAfterClosingDate": null, "inUseDate": null, "metalMinedGold": "FALSE", "metalMinedSilver": 0.0, "metalMinedLead": 0.0, "metalMinedCopper": 0.0, "metalMinedTin": 0.0, "metalMinedIron": 1.0, "metalMinedMercuryCinnabar": 0.0, "metalMinedZinc": 0.0, "metalMinedOther": 0.0, "description": null, "references": "Domergue 1990: 64", "techniqueOpencast": null, "techniqueUnderground": null, "techniqueHydraulic": "FALSE", "techniqueHushing": "FALSE", "techniqueGroundSluicing": "FALSE", "techniqueRuinaMontium": 0.0, "techniqueRakeComb": 0.0, "techniqueGoldWashing": 0.0, "techniqueOther": null, "notes": null, "geology": null, "depositType": null, "exploitationType": null, "Flag_Au_Oro": 0, "Status_Au_Oro": "No", "Flag_Ag_Plata": 0, "Status_Ag_Plata": "No", "Flag_Cu_Cobre": 0, "Status_Cu_Cobre": "No", "Flag_Pb_Plomo": 0, "Status_Pb_Plomo": "No", "Flag_Hg_Cinabrio": 0, "Status_Hg_Cinabrio": "No", "Flag_Sn_Estano": 0, "Status_Sn_Estano": "No", "Flag_Fe_Hierro": 1, "Status_Fe_Hierro": "Confirmado", "Tech_Ruina_Montium": 0, "Tech_Subterranea": 0, "Tech_Cielo_Abierto": 0, "Tech_Lavado_Placer": 0, "Certainty_Spatial": 1.0, "Certainty_Archaeological": 0.9, "Certainty_Metallogenic": 1.0, "Certainty_Score": 0.965, "Certainty_Grade": "Alta Certeza (Grado I)" }, "geometry": { "type": "Point", "coordinates": [ -3.06484578, 43.28233686 ] } },
{ "type": "Feature", "properties": { "mineID": 1010, "site": "Moros", "ancientName": null, "province": "Hispania Tarraconensis", "country": "Spain", "region": "Zaragoza", "miningDistrict": null, "romanianRANID": null, "sanchezPalenciaAndOrejasID": null, "domergueID": "Z 3", "spainMapSheet": 409.0, "lambertX": 755.5, "lambertY": 756.6, "latitude": 41.39711223, "longitude": -1.82679945, "coordinateAccuracy": 100.0, "locationDataSource": "Converted in QGIS from Lambert coords, Madrid 1870", "locationNotes": null, "notBeforeOpeningDate": null, "notAfterOpeningDate": null, "notBeforeClosingDate": null, "notAfterClosingDate": null, "inUseDate": null, "metalMinedGold": "FALSE", "metalMinedSilver": 0.0, "metalMinedLead": 0.0, "metalMinedCopper": 0.0, "metalMinedTin": 0.0, "metalMinedIron": 1.0, "metalMinedMercuryCinnabar": 0.0, "metalMinedZinc": 0.0, "metalMinedOther": 0.0, "description": null, "references": "Domergue 1990: 64", "techniqueOpencast": null, "techniqueUnderground": null, "techniqueHydraulic": "FALSE", "techniqueHushing": "FALSE", "techniqueGroundSluicing": "FALSE", "techniqueRuinaMontium": 0.0, "techniqueRakeComb": 0.0, "techniqueGoldWashing": 0.0, "techniqueOther": null, "notes": null, "geology": null, "depositType": null, "exploitationType": null, "Flag_Au_Oro": 0, "Status_Au_Oro": "No", "Flag_Ag_Plata": 0, "Status_Ag_Plata": "No", "Flag_Cu_Cobre": 0, "Status_Cu_Cobre": "No", "Flag_Pb_Plomo": 0, "Status_Pb_Plomo": "No", "Flag_Hg_Cinabrio": 0, "Status_Hg_Cinabrio": "No", "Flag_Sn_Estano": 0, "Status_Sn_Estano": "No", "Flag_Fe_Hierro": 1, "Status_Fe_Hierro": "Confirmado", "Tech_Ruina_Montium": 0, "Tech_Subterranea": 0, "Tech_Cielo_Abierto": 0, "Tech_Lavado_Placer": 0, "Certainty_Spatial": 1.0, "Certainty_Archaeological": 0.9, "Certainty_Metallogenic": 1.0, "Certainty_Score": 0.965, "Certainty_Grade": "Alta Certeza (Grado I)" }, "geometry": { "type": "Point", "coordinates": [ -1.82679945, 41.39711223 ] } },
{ "type": "Feature", "properties": { "mineID": 1043, "site": "Pardellán", "ancientName": null, "province": "Hispania Tarraconensis", "country": "Spain", "region": "Orense", "miningDistrict": "Galicia", "romanianRANID": null, "sanchezPalenciaAndOrejasID": null, "domergueID": "OR 10", "spainMapSheet": 191.0, "lambertX": 341.0, "lambertY": 877.0, "latitude": 42.45515087, "longitude": -6.83793526, "coordinateAccuracy": 100.0, "locationDataSource": "Converted in QGIS from Lambert coords, Madrid 1870", "locationNotes": null, "notBeforeOpeningDate": null, "notAfterOpeningDate": null, "notBeforeClosingDate": null, "notAfterClosingDate": null, "inUseDate": null, "metalMinedGold": "FALSE", "metalMinedSilver": 0.0, "metalMinedLead": 0.0, "metalMinedCopper": 0.0, "metalMinedTin": 0.0, "metalMinedIron": 1.0, "metalMinedMercuryCinnabar": 0.0, "metalMinedZinc": 0.0, "metalMinedOther": 0.0, "description": null, "references": "Domergue 1990: 41", "techniqueOpencast": null, "techniqueUnderground": null, "techniqueHydraulic": "FALSE", "techniqueHushing": "FALSE", "techniqueGroundSluicing": "FALSE", "techniqueRuinaMontium": 0.0, "techniqueRakeComb": 0.0, "techniqueGoldWashing": 0.0, "techniqueOther": null, "notes": null, "geology": "Hard rock", "depositType": null, "exploitationType": null, "Flag_Au_Oro": 0, "Status_Au_Oro": "No", "Flag_Ag_Plata": 0, "Status_Ag_Plata": "No", "Flag_Cu_Cobre": 0, "Status_Cu_Cobre": "No", "Flag_Pb_Plomo": 0, "Status_Pb_Plomo": "No", "Flag_Hg_Cinabrio": 0, "Status_Hg_Cinabrio": "No", "Flag_Sn_Estano": 0, "Status_Sn_Estano": "No", "Flag_Fe_Hierro": 1, "Status_Fe_Hierro": "Confirmado", "Tech_Ruina_Montium": 0, "Tech_Subterranea": 0, "Tech_Cielo_Abierto": 0, "Tech_Lavado_Placer": 0, "Certainty_Spatial": 1.0, "Certainty_Archaeological": 0.9, "Certainty_Metallogenic": 1.0, "Certainty_Score": 0.965, "Certainty_Grade": "Alta Certeza (Grado I)" }, "geometry": { "type": "Point", "coordinates": [ -6.83793526, 42.45515087 ] } },
{ "type": "Feature", "properties": { "mineID": 1241, "site": "Riotinto", "ancientName": "Urium (?)", "province": "Hispania Baetica", "country": "Spain", "region": "Huelva", "miningDistrict": "Huelva", "romanianRANID": null, "sanchezPalenciaAndOrejasID": null, "domergueID": "H 43", "spainMapSheet": 938.0, "lambertX": 344.6, "lambertY": 349.5, "latitude": 37.70395454, "longitude": -6.58569922, "coordinateAccuracy": 100.0, "locationDataSource": "Converted in QGIS from Lambert coords, Madrid 1870", "locationNotes": null, "notBeforeOpeningDate": -100.0, "notAfterOpeningDate": null, "notBeforeClosingDate": 200.0, "notAfterClosingDate": null, "inUseDate": null, "metalMinedGold": "FALSE", "metalMinedSilver": 1.0, "metalMinedLead": 0.0, "metalMinedCopper": 1.0, "metalMinedTin": 0.0, "metalMinedIron": 1.0, "metalMinedMercuryCinnabar": 0.0, "metalMinedZinc": 0.0, "metalMinedOther": 0.0, "description": "Originally a Punic mine, Riotinto was one of the largest mines in the Roman empire. It may be the site that Ptolemy refers to as Urium. Silver and copper mine which produced an estimated 16,000,000 tons of slag. 16 pairs of water wheels found in the mine draining depths of 100m. It is surrounded by an extensive settlement with cemeteries.", "references": "Jones 1980: 146-165; Rothenberg 1981; Domergue 1990: 62.", "techniqueOpencast": 0.0, "techniqueUnderground": 1.0, "techniqueHydraulic": "FALSE", "techniqueHushing": "FALSE", "techniqueGroundSluicing": "FALSE", "techniqueRuinaMontium": 0.0, "techniqueRakeComb": 0.0, "techniqueGoldWashing": 0.0, "techniqueOther": 0.0, "notes": null, "geology": "Pyrite", "depositType": "Primary", "exploitationType": null, "Flag_Au_Oro": 0, "Status_Au_Oro": "No", "Flag_Ag_Plata": 1, "Status_Ag_Plata": "Confirmado", "Flag_Cu_Cobre": 1, "Status_Cu_Cobre": "Confirmado", "Flag_Pb_Plomo": 0, "Status_Pb_Plomo": "No", "Flag_Hg_Cinabrio": 0, "Status_Hg_Cinabrio": "No", "Flag_Sn_Estano": 0, "Status_Sn_Estano": "No", "Flag_Fe_Hierro": 1, "Status_Fe_Hierro": "Confirmado", "Tech_Ruina_Montium": 0, "Tech_Subterranea": 1, "Tech_Cielo_Abierto": 0, "Tech_Lavado_Placer": 0, "Certainty_Spatial": 1.0, "Certainty_Archaeological": 0.9, "Certainty_Metallogenic": 1.0, "Certainty_Score": 0.965, "Certainty_Grade": "Alta Certeza (Grado I)" }, "geometry": { "type": "Point", "coordinates": [ -6.58569922, 37.70395454 ] } },
{ "type": "Feature", "properties": { "mineID": 1299, "site": "Sierra de Cartagena", "ancientName": null, "province": "Hispania Tarraconensis", "country": "Spain", "region": "Murcia", "miningDistrict": "Cartagena-Mazarrón", "romanianRANID": null, "sanchezPalenciaAndOrejasID": null, "domergueID": "MU 3", "spainMapSheet": 977.0, "lambertX": 849.8, "lambertY": 338.9, "latitude": 37.6100851, "longitude": -0.857490443, "coordinateAccuracy": 100.0, "locationDataSource": "Converted in QGIS from Lambert coords, Madrid 1870", "locationNotes": "need to add detail from sub-sites", "notBeforeOpeningDate": null, "notAfterOpeningDate": null, "notBeforeClosingDate": null, "notAfterClosingDate": null, "inUseDate": null, "metalMinedGold": "FALSE", "metalMinedSilver": 1.0, "metalMinedLead": 1.0, "metalMinedCopper": 1.0, "metalMinedTin": 1.0, "metalMinedIron": 1.0, "metalMinedMercuryCinnabar": 0.0, "metalMinedZinc": 0.0, "metalMinedOther": 0.0, "description": null, "references": "Domergue 1990: 64", "techniqueOpencast": 0.0, "techniqueUnderground": 1.0, "techniqueHydraulic": "FALSE", "techniqueHushing": "FALSE", "techniqueGroundSluicing": "FALSE", "techniqueRuinaMontium": 0.0, "techniqueRakeComb": 0.0, "techniqueGoldWashing": 0.0, "techniqueOther": 0.0, "notes": null, "geology": null, "depositType": null, "exploitationType": null, "Flag_Au_Oro": 0, "Status_Au_Oro": "No", "Flag_Ag_Plata": 1, "Status_Ag_Plata": "Confirmado", "Flag_Cu_Cobre": 1, "Status_Cu_Cobre": "Confirmado", "Flag_Pb_Plomo": 1, "Status_Pb_Plomo": "Confirmado", "Flag_Hg_Cinabrio": 0, "Status_Hg_Cinabrio": "No", "Flag_Sn_Estano": 1, "Status_Sn_Estano": "Confirmado", "Flag_Fe_Hierro": 1, "Status_Fe_Hierro": "Confirmado", "Tech_Ruina_Montium": 0, "Tech_Subterranea": 1, "Tech_Cielo_Abierto": 0, "Tech_Lavado_Placer": 0, "Certainty_Spatial": 1.0, "Certainty_Archaeological": 0.9, "Certainty_Metallogenic": 1.0, "Certainty_Score": 0.965, "Certainty_Grade": "Alta Certeza (Grado I)" }, "geometry": { "type": "Point", "coordinates": [ -0.857490443, 37.6100851 ] } },
{ "type": "Feature", "properties": { "mineID": 1301, "site": "Sierra de las Estrellas", "ancientName": null, "province": "Hispania Baetica", "country": "Spain", "region": "Badajoz", "miningDistrict": "Sevilla", "romanianRANID": null, "sanchezPalenciaAndOrejasID": null, "domergueID": "BA 62", "spainMapSheet": 919.0, "lambertX": 383.5, "lambertY": 879.15, "latitude": 42.48691543, "longitude": -6.3221468, "coordinateAccuracy": 100.0, "locationDataSource": "Converted in QGIS from Lambert coords, Madrid 1870", "locationNotes": null, "notBeforeOpeningDate": null, "notAfterOpeningDate": null, "notBeforeClosingDate": null, "notAfterClosingDate": null, "inUseDate": null, "metalMinedGold": "FALSE", "metalMinedSilver": 0.0, "metalMinedLead": 0.0, "metalMinedCopper": 0.0, "metalMinedTin": 0.0, "metalMinedIron": 1.0, "metalMinedMercuryCinnabar": 0.0, "metalMinedZinc": 0.0, "metalMinedOther": 0.0, "description": null, "references": "Domergue 1990: 48", "techniqueOpencast": null, "techniqueUnderground": null, "techniqueHydraulic": "FALSE", "techniqueHushing": "FALSE", "techniqueGroundSluicing": "FALSE", "techniqueRuinaMontium": 0.0, "techniqueRakeComb": 0.0, "techniqueGoldWashing": 0.0, "techniqueOther": null, "notes": null, "geology": "Hard rock", "depositType": "Primary", "exploitationType": null, "Flag_Au_Oro": 0, "Status_Au_Oro": "No", "Flag_Ag_Plata": 0, "Status_Ag_Plata": "No", "Flag_Cu_Cobre": 0, "Status_Cu_Cobre": "No", "Flag_Pb_Plomo": 0, "Status_Pb_Plomo": "No", "Flag_Hg_Cinabrio": 0, "Status_Hg_Cinabrio": "No", "Flag_Sn_Estano": 0, "Status_Sn_Estano": "No", "Flag_Fe_Hierro": 1, "Status_Fe_Hierro": "Confirmado", "Tech_Ruina_Montium": 0, "Tech_Subterranea": 0, "Tech_Cielo_Abierto": 0, "Tech_Lavado_Placer": 0, "Certainty_Spatial": 1.0, "Certainty_Archaeological": 0.9, "Certainty_Metallogenic": 1.0, "Certainty_Score": 0.965, "Certainty_Grade": "Alta Certeza (Grado I)" }, "geometry": { "type": "Point", "coordinates": [ -6.3221468, 42.48691543 ] } },
{ "type": "Feature", "properties": { "mineID": 1302, "site": "Sierra Jayona", "ancientName": null, "province": "Hispania Baetica", "country": "Spain", "region": "Badajoz", "miningDistrict": "Sevilla", "romanianRANID": null, "sanchezPalenciaAndOrejasID": null, "domergueID": "BA 44", "spainMapSheet": 898.0, "lambertX": 403.0, "lambertY": 394.0, "latitude": 38.1201223, "longitude": -5.93614727, "coordinateAccuracy": 100.0, "locationDataSource": "Converted in QGIS from Lambert coords, Madrid 1870", "locationNotes": null, "notBeforeOpeningDate": null, "notAfterOpeningDate": null, "notBeforeClosingDate": null, "notAfterClosingDate": null, "inUseDate": null, "metalMinedGold": "FALSE", "metalMinedSilver": 0.0, "metalMinedLead": 0.0, "metalMinedCopper": 0.0, "metalMinedTin": 0.0, "metalMinedIron": 1.0, "metalMinedMercuryCinnabar": 0.0, "metalMinedZinc": 0.0, "metalMinedOther": 0.0, "description": null, "references": "Domergue 1990: 48", "techniqueOpencast": null, "techniqueUnderground": null, "techniqueHydraulic": "FALSE", "techniqueHushing": "FALSE", "techniqueGroundSluicing": "FALSE", "techniqueRuinaMontium": 0.0, "techniqueRakeComb": 0.0, "techniqueGoldWashing": 0.0, "techniqueOther": null, "notes": null, "geology": "Hard rock", "depositType": "Primary", "exploitationType": null, "Flag_Au_Oro": 0, "Status_Au_Oro": "No", "Flag_Ag_Plata": 0, "Status_Ag_Plata": "No", "Flag_Cu_Cobre": 0, "Status_Cu_Cobre": "No", "Flag_Pb_Plomo": 0, "Status_Pb_Plomo": "No", "Flag_Hg_Cinabrio": 0, "Status_Hg_Cinabrio": "No", "Flag_Sn_Estano": 0, "Status_Sn_Estano": "No", "Flag_Fe_Hierro": 1, "Status_Fe_Hierro": "Confirmado", "Tech_Ruina_Montium": 0, "Tech_Subterranea": 0, "Tech_Cielo_Abierto": 0, "Tech_Lavado_Placer": 0, "Certainty_Spatial": 1.0, "Certainty_Archaeological": 0.9, "Certainty_Metallogenic": 1.0, "Certainty_Score": 0.965, "Certainty_Grade": "Alta Certeza (Grado I)" }, "geometry": { "type": "Point", "coordinates": [ -5.93614727, 38.1201223 ] } },
{ "type": "Feature", "properties": { "mineID": 1437, "site": "Munigua", "ancientName": null, "province": "Hispania Baetica", "country": "Spain", "region": null, "miningDistrict": null, "romanianRANID": null, "sanchezPalenciaAndOrejasID": null, "domergueID": null, "spainMapSheet": null, "lambertX": null, "lambertY": null, "latitude": 37.71323, "longitude": -5.740789, "coordinateAccuracy": 1000.0, "locationDataSource": "Google Earth (site of ancient town)", "locationNotes": null, "notBeforeOpeningDate": null, "notAfterOpeningDate": null, "notBeforeClosingDate": null, "notAfterClosingDate": null, "inUseDate": "4th c. BC to 2nd/3rd c. AD (?)", "metalMinedGold": "FALSE", "metalMinedSilver": 0.0, "metalMinedLead": 0.0, "metalMinedCopper": 1.0, "metalMinedTin": 0.0, "metalMinedIron": 1.0, "metalMinedMercuryCinnabar": 0.0, "metalMinedZinc": 0.0, "metalMinedOther": 0.0, "description": null, "references": "Thomas G. Schattner, various articles; http://www.haaretz.com/archaeology/1.774629", "techniqueOpencast": 0.0, "techniqueUnderground": 1.0, "techniqueHydraulic": "FALSE", "techniqueHushing": "FALSE", "techniqueGroundSluicing": "FALSE", "techniqueRuinaMontium": 0.0, "techniqueRakeComb": 0.0, "techniqueGoldWashing": 0.0, "techniqueOther": 0.0, "notes": null, "geology": null, "depositType": null, "exploitationType": null, "Flag_Au_Oro": 0, "Status_Au_Oro": "No", "Flag_Ag_Plata": 0, "Status_Ag_Plata": "No", "Flag_Cu_Cobre": 1, "Status_Cu_Cobre": "Confirmado", "Flag_Pb_Plomo": 0, "Status_Pb_Plomo": "No", "Flag_Hg_Cinabrio": 0, "Status_Hg_Cinabrio": "No", "Flag_Sn_Estano": 0, "Status_Sn_Estano": "No", "Flag_Fe_Hierro": 1, "Status_Fe_Hierro": "Confirmado", "Tech_Ruina_Montium": 0, "Tech_Subterranea": 1, "Tech_Cielo_Abierto": 0, "Tech_Lavado_Placer": 0, "Certainty_Spatial": 0.7, "Certainty_Archaeological": 0.75, "Certainty_Metallogenic": 1.0, "Certainty_Score": 0.7925, "Certainty_Grade": "Media Certeza (Grado II)" }, "geometry": { "type": "Point", "coordinates": [ -5.740789, 37.71323 ] } }
]
}
