{
"type": "FeatureCollection",
"name": "OxREP_Hispania_Hg_Cinabrio",
"crs": { "type": "name", "properties": { "name": "urn:ogc:def:crs:OGC:1.3:CRS84" } },
"features": [
{ "type": "Feature", "properties": { "mineID": 676, "site": "Entredicho", "ancientName": null, "province": "Hispania Tarraconensis", "country": "Spain", "region": "Ciudad Real", "miningDistrict": "Alcudia", "romanianRANID": null, "sanchezPalenciaAndOrejasID": null, "domergueID": "CR 6", "spainMapSheet": 808.0, "lambertX": 514.4, "lambertY": 459.2, "latitude": 38.72610389, "longitude": -4.67321927, "coordinateAccuracy": 100.0, "locationDataSource": "Converted in QGIS from Lambert coords, Madrid 1870", "locationNotes": null, "notBeforeOpeningDate": null, "notAfterOpeningDate": null, "notBeforeClosingDate": null, "notAfterClosingDate": null, "inUseDate": null, "metalMinedGold": "FALSE", "metalMinedSilver": 0.0, "metalMinedLead": 0.0, "metalMinedCopper": 0.0, "metalMinedTin": 0.0, "metalMinedIron": 0.0, "metalMinedMercuryCinnabar": 1.0, "metalMinedZinc": 0.0, "metalMinedOther": 0.0, "description": null, "references": "Domergue 1990: 46", "techniqueOpencast": null, "techniqueUnderground": null, "techniqueHydraulic": "FALSE", "techniqueHushing": "FALSE", "techniqueGroundSluicing": "FALSE", "techniqueRuinaMontium": 0.0, "techniqueRakeComb": 0.0, "techniqueGoldWashing": 0.0, "techniqueOther": null, "notes": null, "geology": null, "depositType": null, "exploitationType": null, "Flag_Au_Oro": 0, "Status_Au_Oro": "No", "Flag_Ag_Plata": 0, "Status_Ag_Plata": "No", "Flag_Cu_Cobre": 0, "Status_Cu_Cobre": "No", "Flag_Pb_Plomo": 0, "Status_Pb_Plomo": "No", "Flag_Hg_Cinabrio": 1, "Status_Hg_Cinabrio": "Confirmado", "Flag_Sn_Estano": 0, "Status_Sn_Estano": "No", "Flag_Fe_Hierro": 0, "Status_Fe_Hierro": "No", "Tech_Ruina_Montium": 0, "Tech_Subterranea": 0, "Tech_Cielo_Abierto": 0, "Tech_Lavado_Placer": 0, "Certainty_Spatial": 1.0, "Certainty_Archaeological": 0.9, "Certainty_Metallogenic": 1.0, "Certainty_Score": 0.965, "Certainty_Grade": "Alta Certeza (Grado I)" }, "geometry": { "type": "Point", "coordinates": [ -4.67321927, 38.72610389 ] } },
{ "type": "Feature", "properties": { "mineID": 730, "site": "Guadalperal", "ancientName": null, "province": "Hispania Tarraconensis", "country": "Spain", "region": "Ciudad Real", "miningDistrict": "Alcudia", "romanianRANID": null, "sanchezPalenciaAndOrejasID": null, "domergueID": "CR 8", "spainMapSheet": 808.0, "lambertX": 508.3, "lambertY": 464.9, "latitude": 38.77686662, "longitude": -4.74420309, "coordinateAccuracy": 100.0, "locationDataSource": "Converted in QGIS from Lambert coords, Madrid 1870", "locationNotes": null, "notBeforeOpeningDate": null, "notAfterOpeningDate": null, "notBeforeClosingDate": null, "notAfterClosingDate": null, "inUseDate": null, "metalMinedGold": "FALSE", "metalMinedSilver": 0.0, "metalMinedLead": 0.0, "metalMinedCopper": 0.0, "metalMinedTin": 0.0, "metalMinedIron": 0.0, "metalMinedMercuryCinnabar": 1.0, "metalMinedZinc": 0.0, "metalMinedOther": 0.0, "description": null, "references": "Domergue 1990: 47", "techniqueOpencast": null, "techniqueUnderground": null, "techniqueHydraulic": "FALSE", "techniqueHushing": "FALSE", "techniqueGroundSluicing": "FALSE", "techniqueRuinaMontium": 0.0, "techniqueRakeComb": 0.0, "techniqueGoldWashing": 0.0, "techniqueOther": null, "notes": null, "geology": null, "depositType": null, "exploitationType": null, "Flag_Au_Oro": 0, "Status_Au_Oro": "No", "Flag_Ag_Plata": 0, "Status_Ag_Plata": "No", "Flag_Cu_Cobre": 0, "Status_Cu_Cobre": "No", "Flag_Pb_Plomo": 0, "Status_Pb_Plomo": "No", "Flag_Hg_Cinabrio": 1, "Status_Hg_Cinabrio": "Confirmado", "Flag_Sn_Estano": 0, "Status_Sn_Estano": "No", "Flag_Fe_Hierro": 0, "Status_Fe_Hierro": "No", "Tech_Ruina_Montium": 0, "Tech_Subterranea": 0, "Tech_Cielo_Abierto": 0, "Tech_Lavado_Placer": 0, "Certainty_Spatial": 1.0, "Certainty_Archaeological": 0.9, "Certainty_Metallogenic": 1.0, "Certainty_Score": 0.965, "Certainty_Grade": "Alta Certeza (Grado I)" }, "geometry": { "type": "Point", "coordinates": [ -4.74420309, 38.77686662 ] } },
{ "type": "Feature", "properties": { "mineID": 816, "site": "La Peña", "ancientName": null, "province": "Hispania Tarraconensis", "country": "Spain", "region": "Oviedo", "miningDistrict": "Asturias", "romanianRANID": null, "sanchezPalenciaAndOrejasID": null, "domergueID": "O 18", "spainMapSheet": 53.0, "lambertX": 430.0, "lambertY": 966.0, "latitude": 43.27946179, "longitude": -5.781417689, "coordinateAccuracy": 100.0, "locationDataSource": "Converted in QGIS from Lambert coords, Madrid 1870", "locationNotes": null, "notBeforeOpeningDate": null, "notAfterOpeningDate": null, "notBeforeClosingDate": null, "notAfterClosingDate": null, "inUseDate": null, "metalMinedGold": "FALSE", "metalMinedSilver": 0.0, "metalMinedLead": 0.0, "metalMinedCopper": 0.0, "metalMinedTin": 0.0, "metalMinedIron": 0.0, "metalMinedMercuryCinnabar": 1.0, "metalMinedZinc": 0.0, "metalMinedOther": 0.0, "description": null, "references": "Domergue 1990: 42", "techniqueOpencast": null, "techniqueUnderground": null, "techniqueHydraulic": "FALSE", "techniqueHushing": "FALSE", "techniqueGroundSluicing": "FALSE", "techniqueRuinaMontium": 0.0, "techniqueRakeComb": 0.0, "techniqueGoldWashing": 0.0, "techniqueOther": null, "notes": null, "geology": null, "depositType": null, "exploitationType": null, "Flag_Au_Oro": 0, "Status_Au_Oro": "No", "Flag_Ag_Plata": 0, "Status_Ag_Plata": "No", "Flag_Cu_Cobre": 0, "Status_Cu_Cobre": "No", "Flag_Pb_Plomo": 0, "Status_Pb_Plomo": "No", "Flag_Hg_Cinabrio": 1, "Status_Hg_Cinabrio": "Confirmado", "Flag_Sn_Estano": 0, "Status_Sn_Estano": "No", "Flag_Fe_Hierro": 0, "Status_Fe_Hierro": "No", "Tech_Ruina_Montium": 0, "Tech_Subterranea": 0, "Tech_Cielo_Abierto": 0, "Tech_Lavado_Placer": 0, "Certainty_Spatial": 1.0, "Certainty_Archaeological": 0.9, "Certainty_Metallogenic": 1.0, "Certainty_Score": 0.965, "Certainty_Grade": "Alta Certeza (Grado I)" }, "geometry": { "type": "Point", "coordinates": [ -5.781417689, 43.27946179 ] } },
{ "type": "Feature", "properties": { "mineID": 860, "site": "Las Cuevas", "ancientName": null, "province": "Hispania Tarraconensis", "country": "Spain", "region": "Ciudad Real", "miningDistrict": "Alcudia", "romanianRANID": null, "sanchezPalenciaAndOrejasID": null, "domergueID": "CR 4", "spainMapSheet": 808.0, "lambertX": 506.8, "lambertY": 469.5, "latitude": 38.81817985, "longitude": -4.76211797, "coordinateAccuracy": 100.0, "locationDataSource": "Converted in QGIS from Lambert coords, Madrid 1870", "locationNotes": null, "notBeforeOpeningDate": null, "notAfterOpeningDate": null, "notBeforeClosingDate": null, "notAfterClosingDate": null, "inUseDate": null, "metalMinedGold": "FALSE", "metalMinedSilver": 0.0, "metalMinedLead": 0.0, "metalMinedCopper": 0.0, "metalMinedTin": 0.0, "metalMinedIron": 0.0, "metalMinedMercuryCinnabar": 1.0, "metalMinedZinc": 0.0, "metalMinedOther": 0.0, "description": null, "references": "Domergue 1990: 46", "techniqueOpencast": null, "techniqueUnderground": null, "techniqueHydraulic": "FALSE", "techniqueHushing": "FALSE", "techniqueGroundSluicing": "FALSE", "techniqueRuinaMontium": 0.0, "techniqueRakeComb": 0.0, "techniqueGoldWashing": 0.0, "techniqueOther": null, "notes": null, "geology": null, "depositType": null, "exploitationType": null, "Flag_Au_Oro": 0, "Status_Au_Oro": "No", "Flag_Ag_Plata": 0, "Status_Ag_Plata": "No", "Flag_Cu_Cobre": 0, "Status_Cu_Cobre": "No", "Flag_Pb_Plomo": 0, "Status_Pb_Plomo": "No", "Flag_Hg_Cinabrio": 1, "Status_Hg_Cinabrio": "Confirmado", "Flag_Sn_Estano": 0, "Status_Sn_Estano": "No", "Flag_Fe_Hierro": 0, "Status_Fe_Hierro": "No", "Tech_Ruina_Montium": 0, "Tech_Subterranea": 0, "Tech_Cielo_Abierto": 0, "Tech_Lavado_Placer": 0, "Certainty_Spatial": 1.0, "Certainty_Archaeological": 0.9, "Certainty_Metallogenic": 1.0, "Certainty_Score": 0.965, "Certainty_Grade": "Alta Certeza (Grado I)" }, "geometry": { "type": "Point", "coordinates": [ -4.76211797, 38.81817985 ] } },
{ "type": "Feature", "properties": { "mineID": 1024, "site": "Nueva Concepción", "ancientName": null, "province": "Hispania Tarraconensis", "country": "Spain", "region": "Ciudad Real", "miningDistrict": "Alcudia", "romanianRANID": null, "sanchezPalenciaAndOrejasID": null, "domergueID": "CR 7", "spainMapSheet": 808.0, "lambertX": 510.1, "lambertY": 459.8, "latitude": 38.73107427, "longitude": -4.72278933, "coordinateAccuracy": 100.0, "locationDataSource": "Converted in QGIS from Lambert coords, Madrid 1870", "locationNotes": null, "notBeforeOpeningDate": null, "notAfterOpeningDate": null, "notBeforeClosingDate": null, "notAfterClosingDate": null, "inUseDate": null, "metalMinedGold": "FALSE", "metalMinedSilver": 0.0, "metalMinedLead": 0.0, "metalMinedCopper": 0.0, "metalMinedTin": 0.0, "metalMinedIron": 0.0, "metalMinedMercuryCinnabar": 1.0, "metalMinedZinc": 0.0, "metalMinedOther": 0.0, "description": null, "references": "Domergue 1990: 47", "techniqueOpencast": null, "techniqueUnderground": null, "techniqueHydraulic": "FALSE", "techniqueHushing": "FALSE", "techniqueGroundSluicing": "FALSE", "techniqueRuinaMontium": 0.0, "techniqueRakeComb": 0.0, "techniqueGoldWashing": 0.0, "techniqueOther": null, "notes": null, "geology": null, "depositType": null, "exploitationType": null, "Flag_Au_Oro": 0, "Status_Au_Oro": "No", "Flag_Ag_Plata": 0, "Status_Ag_Plata": "No", "Flag_Cu_Cobre": 0, "Status_Cu_Cobre": "No", "Flag_Pb_Plomo": 0, "Status_Pb_Plomo": "No", "Flag_Hg_Cinabrio": 1, "Status_Hg_Cinabrio": "Confirmado", "Flag_Sn_Estano": 0, "Status_Sn_Estano": "No", "Flag_Fe_Hierro": 0, "Status_Fe_Hierro": "No", "Tech_Ruina_Montium": 0, "Tech_Subterranea": 0, "Tech_Cielo_Abierto": 0, "Tech_Lavado_Placer": 0, "Certainty_Spatial": 1.0, "Certainty_Archaeological": 0.9, "Certainty_Metallogenic": 1.0, "Certainty_Score": 0.965, "Certainty_Grade": "Alta Certeza (Grado I)" }, "geometry": { "type": "Point", "coordinates": [ -4.72278933, 38.73107427 ] } }
]
}
