{
"type": "FeatureCollection",
"name": "OxREP_Hispania_Tecnica_Lavado_Placer",
"crs": { "type": "name", "properties": { "name": "urn:ogc:def:crs:OGC:1.3:CRS84" } },
"features": [
{ "type": "Feature", "properties": { "mineID": 1777, "site": "Salas de la Ribera", "ancientName": null, "province": "Hispania Tarraconensis", "country": "Spain", "region": "León", "miningDistrict": null, "romanianRANID": null, "sanchezPalenciaAndOrejasID": null, "domergueID": null, "spainMapSheet": null, "lambertX": null, "lambertY": null, "latitude": 42.432746, "longitude": -6.80394886, "coordinateAccuracy": 1000.0, "locationDataSource": "Guessed from description.", "locationNotes": "North of Puente de Domingo Flórez on the bank of the Sil.", "notBeforeOpeningDate": null, "notAfterOpeningDate": null, "notBeforeClosingDate": null, "notAfterClosingDate": null, "inUseDate": "Roman", "metalMinedGold": "TRUE", "metalMinedSilver": 0.0, "metalMinedLead": 0.0, "metalMinedCopper": 0.0, "metalMinedTin": 0.0, "metalMinedIron": 0.0, "metalMinedMercuryCinnabar": 0.0, "metalMinedZinc": 0.0, "metalMinedOther": 0.0, "description": "Underground mine with several connected galleries, some up to 2 m in height. Discovered in 2023 (reported 14 August 2023). Alluvial mine in old river terrace so earth from the underground mine had to be taken out to be washed outside the mine.", "references": "https://astures.es/descubierta-una-nueva-mina-de-oro-romana-en-leon-las-ferreiruscas/", "techniqueOpencast": 0.0, "techniqueUnderground": 1.0, "techniqueHydraulic": "FALSE", "techniqueHushing": "FALSE", "techniqueGroundSluicing": "FALSE", "techniqueRuinaMontium": 0.0, "techniqueRakeComb": 0.0, "techniqueGoldWashing": 1.0, "techniqueOther": 0.0, "notes": null, "geology": null, "depositType": null, "exploitationType": null, "Flag_Au_Oro": 1, "Status_Au_Oro": "Confirmado", "Flag_Ag_Plata": 0, "Status_Ag_Plata": "No", "Flag_Cu_Cobre": 0, "Status_Cu_Cobre": "No", "Flag_Pb_Plomo": 0, "Status_Pb_Plomo": "No", "Flag_Hg_Cinabrio": 0, "Status_Hg_Cinabrio": "No", "Flag_Sn_Estano": 0, "Status_Sn_Estano": "No", "Flag_Fe_Hierro": 0, "Status_Fe_Hierro": "No", "Tech_Ruina_Montium": 0, "Tech_Subterranea": 1, "Tech_Cielo_Abierto": 0, "Tech_Lavado_Placer": 1, "Certainty_Spatial": 0.7, "Certainty_Archaeological": 0.75, "Certainty_Metallogenic": 1.0, "Certainty_Score": 0.7925, "Certainty_Grade": "Media Certeza (Grado II)" }, "geometry": { "type": "Point", "coordinates": [ -6.80394886, 42.432746 ] } }
]
}
