{
"type": "FeatureCollection",
"name": "depositos_confirmados_4326",
"crs": { "type": "name", "properties": { "name": "urn:ogc:def:crs:OGC:1.3:CRS84" } },
"features": [
{ "type": "Feature", "properties": { "deposit_id": "dep_aguablanca", "district_id": "dist_ossa_morena_monesterio", "nombre_mina": "Aguablanca", "provincia": "BADAJOZ", "municipio": "Monesterio", "records_count": 1, "lon": -6.1859706559999381, "lat": 37.959323213000062, "tipo_au": "roca" }, "geometry": { "type": "Point", "coordinates": [ -6.185970655999938, 37.959323213000062 ] } },
{ "type": "Feature", "properties": { "deposit_id": "dep_barruecopardo", "district_id": "dist_salamanca_arribes", "nombre_mina": "Las Cabritas 1 y 2", "provincia": "SALAMANCA", "municipio": "Barruecopardo", "records_count": 4, "lon": -6.6756239679999538, "lat": 41.064176204000049, "tipo_au": "roca" }, "geometry": { "type": "Point", "coordinates": [ -6.675623967999954, 41.064176204000049 ] } },
{ "type": "Feature", "properties": { "deposit_id": "dep_cabuercas_somoza", "district_id": "dist_leon_maragateria", "nombre_mina": "CABUERCA EL BUSTILLO, CABUERCA LA CARRIZA, CABUERCA SANTA", "provincia": "LEON", "municipio": "Santa Colomba de Somoza", "records_count": 5, "lon": -6.3270343815999581, "lat": 42.465779210000051, "tipo_au": "roca" }, "geometry": { "type": "Point", "coordinates": [ -6.327034381599958, 42.465779210000051 ] } },
{ "type": "Feature", "properties": { "deposit_id": "dep_california_extremena_monesterio", "district_id": "dist_ossa_morena_monesterio", "nombre_mina": "California, Extremeña", "provincia": "BADAJOZ", "municipio": "Monesterio", "records_count": 2, "lon": -6.2828052209999612, "lat": 37.976577558000059, "tipo_au": "roca" }, "geometry": { "type": "Point", "coordinates": [ -6.282805220999961, 37.976577558000059 ] } },
{ "type": "Feature", "properties": { "deposit_id": "dep_california_granadina_darro", "district_id": "dist_beticas_granada", "nombre_mina": "CALIFORNIA GRANADINA", "provincia": "GRANADA", "municipio": "Granada", "records_count": 1, "lon": -3.5513202429999642, "lat": 37.167073479000067, "tipo_au": "aluvial" }, "geometry": { "type": "Point", "coordinates": [ -3.551320242999964, 37.167073479000067 ] } },
{ "type": "Feature", "properties": { "deposit_id": "dep_carles", "district_id": "dist_cinturon_narcea", "nombre_mina": "Carles, Mina Bandanaso., Mina de Cura.", "provincia": "ASTURIAS", "municipio": "Salas", "records_count": 4, "lon": -6.2451907899999668, "lat": 43.361473793750051, "tipo_au": "roca" }, "geometry": { "type": "Point", "coordinates": [ -6.245190789999967, 43.361473793750051 ] } },
{ "type": "Feature", "properties": { "deposit_id": "dep_castropodame", "district_id": "dist_leon_bierzo", "nombre_mina": "CASTROPODAME Cuevas del Moro y Corralón., LA MASERA, LAS VALLINAS", "provincia": "LEON", "municipio": "Castropodame", "records_count": 3, "lon": -6.4750054456666062, "lat": 42.571164875333373, "tipo_au": "aluvial" }, "geometry": { "type": "Point", "coordinates": [ -6.475005445666606, 42.571164875333373 ] } },
{ "type": "Feature", "properties": { "deposit_id": "dep_cavenes_el_cabaco", "district_id": "dist_salamanca_sierra_francia", "nombre_mina": "EL CABACO, EL CASARITO, LAS CAVENES DE EL CABACO", "provincia": "SALAMANCA", "municipio": "Cabaco, El", "records_count": 3, "lon": -6.142148047333289, "lat": 40.53412092700006, "tipo_au": "mixto" }, "geometry": { "type": "Point", "coordinates": [ -6.142148047333289, 40.53412092700006 ] } },
{ "type": "Feature", "properties": { "deposit_id": "dep_cerro_colorado_riotinto", "district_id": "dist_faja_piritica_sur", "nombre_mina": "Cerro Colorado", "provincia": "HUELVA", "municipio": "Minas de Riotinto", "records_count": 1, "lon": -6.5852171189999353, "lat": 37.704632776000039, "tipo_au": "roca" }, "geometry": { "type": "Point", "coordinates": [ -6.585217118999935, 37.704632776000039 ] } },
{ "type": "Feature", "properties": { "deposit_id": "dep_corcoesto", "district_id": "dist_galicia_costa_da_morte", "nombre_mina": "CORCOESTO", "provincia": "CORUÑA", "municipio": "Cabana", "records_count": 1, "lon": -8.8291674329999523, "lat": 43.219330262000028, "tipo_au": "roca" }, "geometry": { "type": "Point", "coordinates": [ -8.829167432999952, 43.219330262000028 ] } },
{ "type": "Feature", "properties": { "deposit_id": "dep_corona_de_corporales", "district_id": "dist_leon_cabrera", "nombre_mina": "LAS CHANAS LA COGOLLA, MINAS DE CORPORALES Y BAILLO. LA DEHESA, RIO PEQUEÑO Y PRADOS", "provincia": "LEON", "municipio": "Truchas", "records_count": 3, "lon": -6.4354116709999403, "lat": 42.285208793333389, "tipo_au": "aluvial" }, "geometry": { "type": "Point", "coordinates": [ -6.43541167099994, 42.285208793333389 ] } },
{ "type": "Feature", "properties": { "deposit_id": "dep_el_chirriato_atalaya", "district_id": "dist_la_codosera", "nombre_mina": "Atalaya, Cañonera, El Chirriato", "provincia": "CACERES", "municipio": "Valencia de Alcántara", "records_count": 5, "lon": -7.2055867027999509, "lat": 39.282190626000059, "tipo_au": "roca" }, "geometry": { "type": "Point", "coordinates": [ -7.205586702799951, 39.282190626000059 ] } },
{ "type": "Feature", "properties": { "deposit_id": "dep_el_chocolatero_segura", "district_id": "dist_ossa_morena_bodonal", "nombre_mina": "El Chocolatero (Anomalía TM-21), El Guijarro", "provincia": "BADAJOZ", "municipio": "Segura de León", "records_count": 2, "lon": -6.5050953389999506, "lat": 38.101395294500037, "tipo_au": "roca" }, "geometry": { "type": "Point", "coordinates": [ -6.505095338999951, 38.101395294500037 ] } },
{ "type": "Feature", "properties": { "deposit_id": "dep_el_valle_boinas", "district_id": "dist_cinturon_narcea", "nombre_mina": "BEGEGA, BOINAS, EL VALLE-LACANAL", "provincia": "ASTURIAS", "municipio": "Belmonte de Miranda", "records_count": 4, "lon": -6.3004794197499479, "lat": 43.282059127500062, "tipo_au": "roca" }, "geometry": { "type": "Point", "coordinates": [ -6.300479419749948, 43.282059127500062 ] } },
{ "type": "Feature", "properties": { "deposit_id": "dep_fana_la_freita", "district_id": "dist_asturoccidental_allande", "nombre_mina": "CUEVA DE JUAN RATA, FANA DE LA FREITA, PEÑON DE FURACON", "provincia": "ASTURIAS", "municipio": "Allande", "records_count": 4, "lon": -6.6852653282499404, "lat": 43.290858495750044, "tipo_au": "roca" }, "geometry": { "type": "Point", "coordinates": [ -6.68526532824994, 43.290858495750044 ] } },
{ "type": "Feature", "properties": { "deposit_id": "dep_ferreras_riofrio", "district_id": "dist_leon_omana_cepeda", "nombre_mina": "Labores de Au de Ferreras y Riofrio, Labores de Au de Riofrio., Labores de Riofrio 2.", "provincia": "LEON", "municipio": "Quintana del Castillo", "records_count": 10, "lon": -5.946632, "lat": 42.6338426000001, "tipo_au": "aluvial" }, "geometry": { "type": "Point", "coordinates": [ -5.946632, 42.633842600000051 ] } },
{ "type": "Feature", "properties": { "deposit_id": "dep_ibias_cecos", "district_id": "dist_asturoccidental_ibias", "nombre_mina": "CECES, ESCUELAS DE IBIAS, FOLGOSO", "provincia": "ASTURIAS", "municipio": "Ibias", "records_count": 7, "lon": -6.8621729361428105, "lat": 43.031497554857197, "tipo_au": "roca" }, "geometry": { "type": "Point", "coordinates": [ -6.862172936142811, 43.031497554857197 ] } },
{ "type": "Feature", "properties": { "deposit_id": "dep_la_almenara_penaflor", "district_id": "dist_ossa_morena_penaflor", "nombre_mina": "La Almenara 1 Galería, La Almenara 1_ rafa, La Almenara 2 (San José)", "provincia": "SEVILLA", "municipio": "Peñaflor", "records_count": 3, "lon": -5.3629672476666315, "lat": 37.754187335333391, "tipo_au": "roca" }, "geometry": { "type": "Point", "coordinates": [ -5.362967247666631, 37.754187335333391 ] } },
{ "type": "Feature", "properties": { "deposit_id": "dep_la_codosera", "district_id": "dist_la_codosera", "nombre_mina": "Barrancones (Labor Romana Aluvial), Casa de La Niña-Barrancones, Cerro de Los Algarbes", "provincia": "BADAJOZ", "municipio": "Codosera, La", "records_count": 16, "lon": -7.2128861975624545, "lat": 39.208482472000043, "tipo_au": "mixto" }, "geometry": { "type": "Point", "coordinates": [ -7.212886197562455, 39.208482472000043 ] } },
{ "type": "Feature", "properties": { "deposit_id": "dep_la_lapilla_tharsis", "district_id": "dist_faja_piritica_sur", "nombre_mina": "La Lapilla", "provincia": "HUELVA", "municipio": "Alosno", "records_count": 1, "lon": -7.0961859669999399, "lat": 37.571615204000068, "tipo_au": "roca" }, "geometry": { "type": "Point", "coordinates": [ -7.09618596699994, 37.571615204000068 ] } },
{ "type": "Feature", "properties": { "deposit_id": "dep_la_oriental_la_jara", "district_id": "dist_montes_de_toledo_jara", "nombre_mina": "Candeal, Pilar o La Oriental, ¿Pilar 2?", "provincia": "TOLEDO", "municipio": "Nava de Ricomalillo, La", "records_count": 4, "lon": -4.9680384259999641, "lat": 39.652097196000042, "tipo_au": "roca" }, "geometry": { "type": "Point", "coordinates": [ -4.968038425999964, 39.652097196000042 ] } },
{ "type": "Feature", "properties": { "deposit_id": "dep_la_preciosa_penaflor", "district_id": "dist_ossa_morena_penaflor", "nombre_mina": "La Preciosa 1, La Preciosa Pozo Maestro, La Preciosa Pozo S", "provincia": "SEVILLA", "municipio": "Peñaflor", "records_count": 7, "lon": -5.3439969055713812, "lat": 37.714846147142907, "tipo_au": "roca" }, "geometry": { "type": "Point", "coordinates": [ -5.343996905571381, 37.714846147142907 ] } },
{ "type": "Feature", "properties": { "deposit_id": "dep_las_medulas_carucedo", "district_id": "dist_leon_bierzo", "nombre_mina": "CARUCEDO, LAS MEDULAS DE CARUCEDO", "provincia": "LEON", "municipio": "Carucedo", "records_count": 2, "lon": -6.7618243894999637, "lat": 42.467805578500048, "tipo_au": "aluvial" }, "geometry": { "type": "Point", "coordinates": [ -6.761824389499964, 42.467805578500048 ] } },
{ "type": "Feature", "properties": { "deposit_id": "dep_las_morras_talarrubias", "district_id": "dist_centro_iberico_serena", "nombre_mina": "Arroyo del Descargadero, Las Morras, Las Morras II", "provincia": "BADAJOZ", "municipio": "Talarrubias", "records_count": 3, "lon": -5.2777049923332884, "lat": 39.125227074000044, "tipo_au": "roca" }, "geometry": { "type": "Point", "coordinates": [ -5.277704992333288, 39.125227074000044 ] } },
{ "type": "Feature", "properties": { "deposit_id": "dep_las_retuertas_alburquerque", "district_id": "dist_alburquerque_la_codosera", "nombre_mina": "Las Retuertas N, Las Retuertas S", "provincia": "BADAJOZ", "municipio": "Alburquerque", "records_count": 2, "lon": -6.8264472939999621, "lat": 39.214099985000047, "tipo_au": "roca" }, "geometry": { "type": "Point", "coordinates": [ -6.826447293999962, 39.214099985000047 ] } },
{ "type": "Feature", "properties": { "deposit_id": "dep_llamas_de_la_ribera", "district_id": "dist_leon_omana_orbigo", "nombre_mina": "LAS ADRIANAS, LAS MEDULAS OMAÑAS RIO ORBIGO, LOS CAMPARONES RIO ORBIGO", "provincia": "LEON", "municipio": "Llamas de la Ribera", "records_count": 3, "lon": -5.8684072733332755, "lat": 42.654522738666707, "tipo_au": "aluvial" }, "geometry": { "type": "Point", "coordinates": [ -5.868407273333275, 42.654522738666707 ] } },
{ "type": "Feature", "properties": { "deposit_id": "dep_lomero_poyatos", "district_id": "dist_faja_piritica_sur", "nombre_mina": "Lomero- Poyatos", "provincia": "HUELVA", "municipio": "Cerro de Andévalo, El", "records_count": 1, "lon": -6.929246176999925, "lat": 37.805538670000033, "tipo_au": "roca" }, "geometry": { "type": "Point", "coordinates": [ -6.929246176999925, 37.805538670000033 ] } },
{ "type": "Feature", "properties": { "deposit_id": "dep_maragateria_pedredo", "district_id": "dist_leon_maragateria", "nombre_mina": "FUCO CHICO-PIOZADERA RIO DUERNA, LAS MEDULAS-PEDREDO, LAS MORACERAS. RIO DUERNA", "provincia": "LEON", "municipio": "Santa Colomba de Somoza", "records_count": 4, "lon": -6.2189965159999474, "lat": 42.397018831000054, "tipo_au": "aluvial" }, "geometry": { "type": "Point", "coordinates": [ -6.218996515999947, 42.397018831000054 ] } },
{ "type": "Feature", "properties": { "deposit_id": "dep_medulas_de_teijeira", "district_id": "dist_galicia_viana_del_bollo", "nombre_mina": "LAS MEDULAS DE TEI JEIRA., LAS MOREIRAS RIO CAMBA", "provincia": "ORENSE", "municipio": "Viana do Bolo", "records_count": 2, "lon": -7.145182706499952, "lat": 42.13630201150005, "tipo_au": "aluvial" }, "geometry": { "type": "Point", "coordinates": [ -7.145182706499952, 42.13630201150005 ] } },
{ "type": "Feature", "properties": { "deposit_id": "dep_mina_da_toca_courel", "district_id": "dist_galicia_courel", "nombre_mina": "MILLARES-TORUBIO E, MINA DA TOCA, TORUBIO", "provincia": "LUGO", "municipio": "Folgoso do Courel", "records_count": 3, "lon": -7.1128836356666243, "lat": 42.651111642000046, "tipo_au": "roca" }, "geometry": { "type": "Point", "coordinates": [ -7.112883635666624, 42.651111642000046 ] } },
{ "type": "Feature", "properties": { "deposit_id": "dep_mina_pepin_espiel", "district_id": "dist_valle_guadiato", "nombre_mina": "Mina Pepín", "provincia": "CORDOBA", "municipio": "Espiel", "records_count": 1, "lon": -5.0583900959999255, "lat": 38.176325026000029, "tipo_au": "roca" }, "geometry": { "type": "Point", "coordinates": [ -5.058390095999926, 38.176325026000029 ] } },
{ "type": "Feature", "properties": { "deposit_id": "dep_mina_sultana_cala", "district_id": "dist_faja_piritica_norte", "nombre_mina": "Mina Sultana, Mina de cala", "provincia": "HUELVA", "municipio": "Cala", "records_count": 2, "lon": -6.3146549504999427, "lat": 37.956787550000058, "tipo_au": "roca" }, "geometry": { "type": "Point", "coordinates": [ -6.314654950499943, 37.956787550000058 ] } },
{ "type": "Feature", "properties": { "deposit_id": "dep_montefurado_quiroga", "district_id": "dist_galicia_sil_quiroga", "nombre_mina": "MONTEFURADO, SAN CLODIO - RIBAS DE SIL, SIL - MONTEFURADO", "provincia": "LUGO", "municipio": "Quiroga", "records_count": 3, "lon": -7.2239942949999358, "lat": 42.416518701000065, "tipo_au": "aluvial" }, "geometry": { "type": "Point", "coordinates": [ -7.223994294999936, 42.416518701000065 ] } },
{ "type": "Feature", "properties": { "deposit_id": "dep_navalmedio_penaflor", "district_id": "dist_ossa_morena_penaflor", "nombre_mina": "Galería Arroyo, Galería Norte, Galería Sur", "provincia": "SEVILLA", "municipio": "Peñaflor", "records_count": 10, "lon": -5.4141331345999673, "lat": 37.749398685300058, "tipo_au": "roca" }, "geometry": { "type": "Point", "coordinates": [ -5.414133134599967, 37.749398685300058 ] } },
{ "type": "Feature", "properties": { "deposit_id": "dep_navelgas", "district_id": "dist_asturoccidental_navelgas", "nombre_mina": "Minas de Naraval., Minas de Navelgas, Navelgas Sur", "provincia": "ASTURIAS", "municipio": "Tineo", "records_count": 3, "lon": -6.5351687023332943, "lat": 43.412158813333406, "tipo_au": "mixto" }, "geometry": { "type": "Point", "coordinates": [ -6.535168702333294, 43.412158813333406 ] } },
{ "type": "Feature", "properties": { "deposit_id": "dep_pino_del_oro", "district_id": "dist_zamora_duero", "nombre_mina": "Afueras de Pino, Arroyo del Gibrero, El Facho", "provincia": "ZAMORA", "municipio": "Pino", "records_count": 23, "lon": -6.1337059249130004, "lat": 41.583692470391362, "tipo_au": "roca" }, "geometry": { "type": "Point", "coordinates": [ -6.133705924913, 41.583692470391362 ] } },
{ "type": "Feature", "properties": { "deposit_id": "dep_rio_cabrera_terrazas", "district_id": "dist_leon_cabrera", "nombre_mina": "LOS CABORCOS RIO CABRERA, RIO CABRERA, RIO CABRERA EL BOQUEIRON", "provincia": "LEON", "municipio": "Puente de Domingo Flórez", "records_count": 3, "lon": -6.7811805269999468, "lat": 42.419702383666731, "tipo_au": "aluvial" }, "geometry": { "type": "Point", "coordinates": [ -6.781180526999947, 42.419702383666731 ] } },
{ "type": "Feature", "properties": { "deposit_id": "dep_rodalquilar_cinto", "district_id": "dist_cabo_de_gata", "nombre_mina": "CANTERA DEL CERRO MADRIGUERAS, CERRO DEL CINTO E., CERRO DEL CINTO SE.1", "provincia": "ALMERIA", "municipio": "Níjar", "records_count": 6, "lon": -2.0593383519999597, "lat": 36.855834694666726, "tipo_au": "roca" }, "geometry": { "type": "Point", "coordinates": [ -2.05933835199996, 36.855834694666726 ] } },
{ "type": "Feature", "properties": { "deposit_id": "dep_rodalquilar_santa_josefa", "district_id": "dist_cabo_de_gata", "nombre_mina": "MINA SANTA JOSEFA", "provincia": "ALMERIA", "municipio": "Níjar", "records_count": 1, "lon": -2.083608131999938, "lat": 36.858728633000055, "tipo_au": "roca" }, "geometry": { "type": "Point", "coordinates": [ -2.083608131999938, 36.858728633000055 ] } },
{ "type": "Feature", "properties": { "deposit_id": "dep_salave", "district_id": "dist_occidente_asturiano", "nombre_mina": "Salave, Salave y dos amigos", "provincia": "ASTURIAS", "municipio": "Tapia de Casariego", "records_count": 2, "lon": -6.9138907259999485, "lat": 43.565455778000057, "tipo_au": "roca" }, "geometry": { "type": "Point", "coordinates": [ -6.913890725999948, 43.565455778000057 ] } },
{ "type": "Feature", "properties": { "deposit_id": "dep_santa_comba_zas", "district_id": "dist_galicia_costa_da_morte", "nombre_mina": "AS FOSAS DA VILA, AS FOSAS DO FORNOS, AS FOSAS DO MEANOS", "provincia": "CORUÑA", "municipio": "Santa Comba", "records_count": 5, "lon": -8.8872637671999541, "lat": 43.065504102200045, "tipo_au": "roca" }, "geometry": { "type": "Point", "coordinates": [ -8.887263767199954, 43.065504102200045 ] } },
{ "type": "Feature", "properties": { "deposit_id": "dep_teleno", "district_id": "dist_leon_maragateria", "nombre_mina": "TELENO, TELENO.VERTIENTE S", "provincia": "LEON", "municipio": "Truchas", "records_count": 3, "lon": -6.3930925406666193, "lat": 42.345612376000041, "tipo_au": "aluvial" }, "geometry": { "type": "Point", "coordinates": [ -6.393092540666619, 42.345612376000041 ] } },
{ "type": "Feature", "properties": { "deposit_id": "dep_tharsis_filon_sur", "district_id": "dist_faja_piritica_sur", "nombre_mina": "Tharsis, Filón Sur", "provincia": "HUELVA", "municipio": "Alosno", "records_count": 1, "lon": -7.1156466989999672, "lat": 37.585626579000063, "tipo_au": "roca" }, "geometry": { "type": "Point", "coordinates": [ -7.115646698999967, 37.585626579000063 ] } },
{ "type": "Feature", "properties": { "deposit_id": "dep_tomino_vilachan", "district_id": "dist_galicia_sur_tomino", "nombre_mina": "ALTO DE POZAS, PEDRADA, PINZAS", "provincia": "PONTEVEDRA", "municipio": "Gondomar", "records_count": 9, "lon": -8.7948593119999465, "lat": 42.040030120888943, "tipo_au": "roca" }, "geometry": { "type": "Point", "coordinates": [ -8.794859311999947, 42.040030120888943 ] } },
{ "type": "Feature", "properties": { "deposit_id": "dep_valderia_nogarejas", "district_id": "dist_leon_valderia", "nombre_mina": "Labores de Quintanilla de Florez, RIO ERIA PINILLA DE VALDERIA, RIO JAMUZ", "provincia": "LEON", "municipio": "Castrocontrigo", "records_count": 3, "lon": -6.1024634049999422, "lat": 42.233703242333377, "tipo_au": "aluvial" }, "geometry": { "type": "Point", "coordinates": [ -6.102463404999942, 42.233703242333377 ] } },
{ "type": "Feature", "properties": { "deposit_id": "dep_viero_valverde", "district_id": "dist_caceres_sierra_gata", "nombre_mina": "\"Viero\", \"viero\"", "provincia": "CACERES", "municipio": "Valverde del Fresno", "records_count": 4, "lon": -6.9464694227499564, "lat": 40.205790913250055, "tipo_au": "roca" }, "geometry": { "type": "Point", "coordinates": [ -6.946469422749956, 40.205790913250055 ] } }
]
}
