{"type": "FeatureCollection", "features": [{"type": "Feature", "geometry": {"type": "Point", "coordinates": [-6.826447, 39.2141]}, "properties": {"district_id": "dist_alburquerque_la_codosera", "nombre": "Alburquerque La Codosera", "n_depositos": 1, "celdas_confirmadas": 1, "celdas_totales": 1, "area_km2": 0.39, "recintos_documentados": "[211] (TOURNAISIENSE) Pizarras y grauvacas. Culm de La Codosera"}}, {"type": "Feature", "geometry": {"type": "Point", "coordinates": [-6.685265, 43.290858]}, "properties": {"district_id": "dist_asturoccidental_allande", "nombre": "Asturoccidental Allande", "n_depositos": 1, "celdas_confirmadas": 4, "celdas_totales": 4, "area_km2": 0.25, "recintos_documentados": "[45] (CUATERNARIO) Depósitos aluviales"}}, {"type": "Feature", "geometry": {"type": "Point", "coordinates": [-6.862173, 43.031498]}, "properties": {"district_id": "dist_asturoccidental_ibias", "nombre": "Asturoccidental Ibias", "n_depositos": 1, "celdas_confirmadas": 6, "celdas_totales": 9, "area_km2": 4.05, "recintos_documentados": "[31] (ORDOVICICO SUPERIOR) Pizarras y areniscas. (Fm Agueira); [43] (CUATERNARIO) Aluvial-coluvial"}}, {"type": "Feature", "geometry": {"type": "Point", "coordinates": [-6.535169, 43.412159]}, "properties": {"district_id": "dist_asturoccidental_navelgas", "nombre": "Asturoccidental Navelgas", "n_depositos": 1, "celdas_confirmadas": 3, "celdas_totales": 12, "area_km2": 10.32, "recintos_documentados": "[20] (CAMBRICO INFERIOR) Areniscas, lutitas, pizarras e intercalaciones vol; [21] (CAMBRICO MEDIO) Calizas y dolimías co"}}, {"type": "Feature", "geometry": {"type": "Point", "coordinates": [-3.55132, 37.167073]}, "properties": {"district_id": "dist_beticas_granada", "nombre": "Beticas Granada", "n_depositos": 1, "celdas_confirmadas": 1, "celdas_totales": 19, "area_km2": 18.58, "recintos_documentados": "[136] (PLIOCENO SUPERIOR) Arcillas rojas, arenas y conglomerados. Abanicos a"}}, {"type": "Feature", "geometry": {"type": "Point", "coordinates": [-2.057967, 36.855823]}, "properties": {"district_id": "dist_cabo_de_gata", "nombre": "Cabo De Gata", "n_depositos": 2, "celdas_confirmadas": 4, "celdas_totales": 10, "area_km2": 9.96, "recintos_documentados": "[139] (MIOCENO MEDIO) Dacitas biotítico-anfibólicas rojo-violáceas con a; [222] (HOLOCENO) Coluviales y aluviales indife"}}, {"type": "Feature", "geometry": {"type": "Point", "coordinates": [-6.946469, 40.205791]}, "properties": {"district_id": "dist_caceres_sierra_gata", "nombre": "Caceres Sierra Gata", "n_depositos": 1, "celdas_confirmadas": 4, "celdas_totales": 4, "area_km2": 0.0, "recintos_documentados": "Sin recintos locales <= 100 km²"}}, {"type": "Feature", "geometry": {"type": "Point", "coordinates": [-5.277705, 39.125227]}, "properties": {"district_id": "dist_centro_iberico_serena", "nombre": "Centro Iberico Serena", "n_depositos": 1, "celdas_confirmadas": 2, "celdas_totales": 37, "area_km2": 56.73, "recintos_documentados": "[379] (PLEISTOCENO SUPERIOR) COLUVIAL. Bloques, cantos y arenas; [88] (NEOPROTEROZOICO) DOMO EXTREMEÑO (ALCUDIENSE INFER"}}, {"type": "Feature", "geometry": {"type": "Point", "coordinates": [-6.273582, 43.313703]}, "properties": {"district_id": "dist_cinturon_narcea", "nombre": "Cinturon Narcea", "n_depositos": 2, "celdas_confirmadas": 6, "celdas_totales": 48, "area_km2": 41.39, "recintos_documentados": "[10] (CAMBRICO MEDIO) Fm. Oville; pizarras, areniscas glauconíticas y cu; [274] (PLEISTOCENO) Derrubios de ladera y canc"}}, {"type": "Feature", "geometry": {"type": "Point", "coordinates": [-6.314655, 37.956788]}, "properties": {"district_id": "dist_faja_piritica_norte", "nombre": "Faja Piritica Norte", "n_depositos": 1, "celdas_confirmadas": 2, "celdas_totales": 27, "area_km2": 33.55, "recintos_documentados": "[211] (CAMBRICO INFERIOR) Cuarcitas; [58] (VISEENSE) Tonalitas y granodioritas"}}, {"type": "Feature", "geometry": {"type": "Point", "coordinates": [-6.931574, 37.666853]}, "properties": {"district_id": "dist_faja_piritica_sur", "nombre": "Faja Piritica Sur", "n_depositos": 4, "celdas_confirmadas": 4, "celdas_totales": 8, "area_km2": 6.08, "recintos_documentados": "[47] (TOURNAISIENSE) Vulcanitas intermedias (andesitas e hialoclastitas; [5] (TOURNAISIENSE) Gabros, microgabros y diaba"}}, {"type": "Feature", "geometry": {"type": "Point", "coordinates": [-8.878692, 43.109755]}, "properties": {"district_id": "dist_galicia_costa_da_morte", "nombre": "Galicia Costa Da Morte", "n_depositos": 2, "celdas_confirmadas": 6, "celdas_totales": 61, "area_km2": 61.08, "recintos_documentados": "[79] (PALEOZOICO) Esquistos, cuarcitas y paragneises; [22] (MISSISSIPIENSE) Facies de dos micas de grano medio a medio-f"}}, {"type": "Feature", "geometry": {"type": "Point", "coordinates": [-7.112884, 42.651112]}, "properties": {"district_id": "dist_galicia_courel", "nombre": "Galicia Courel", "n_depositos": 1, "celdas_confirmadas": 3, "celdas_totales": 3, "area_km2": 0.71, "recintos_documentados": "[15] (CAMBRICO INFERIOR) Pizarras y areniscas. (Pizarras de Cándana); [43] (CUATERNARIO) Aluvial-coluvial"}}, {"type": "Feature", "geometry": {"type": "Point", "coordinates": [-7.223994, 42.416519]}, "properties": {"district_id": "dist_galicia_sil_quiroga", "nombre": "Galicia Sil Quiroga", "n_depositos": 1, "celdas_confirmadas": 3, "celdas_totales": 17, "area_km2": 17.15, "recintos_documentados": "[107] (ORETANIENSE) Pizarras homogéneas, filitas o micacitas. Pizarras; [107] (ORETANIENSE) Pizarras homogéneas, filitas"}}, {"type": "Feature", "geometry": {"type": "Point", "coordinates": [-8.794859, 42.04003]}, "properties": {"district_id": "dist_galicia_sur_tomino", "nombre": "Galicia Sur Tomino", "n_depositos": 1, "celdas_confirmadas": 6, "celdas_totales": 36, "area_km2": 36.37, "recintos_documentados": "[76] (WENLOCK) Esquistos, talcoesquistos y cloritoesquistos; [77] (WENLOCK) Cuarzoesquistos y esquistos grafitosos; [211"}}, {"type": "Feature", "geometry": {"type": "Point", "coordinates": [-7.145183, 42.136302]}, "properties": {"district_id": "dist_galicia_viana_del_bollo", "nombre": "Galicia Viana Del Bollo", "n_depositos": 1, "celdas_confirmadas": 2, "celdas_totales": 2, "area_km2": 1.05, "recintos_documentados": "[36] (CARBONIFERO) Granitoides de dos micas. Facies equigranulares; [160] (MIOCENO INFERIOR) Arcillas, arenas, margas, c"}}, {"type": "Feature", "geometry": {"type": "Point", "coordinates": [-7.211148, 39.226032]}, "properties": {"district_id": "dist_la_codosera", "nombre": "La Codosera", "n_depositos": 2, "celdas_confirmadas": 12, "celdas_totales": 55, "area_km2": 84.86, "recintos_documentados": "[228] (PRAGIENSE) Cuarcitas en bancos; [228] (PRAGIENSE) Cuarcitas en bancos; [251] (HOLOCENO) Limos masivos con hiladas"}}, {"type": "Feature", "geometry": {"type": "Point", "coordinates": [-6.627823, 42.519727]}, "properties": {"district_id": "dist_leon_bierzo", "nombre": "Leon Bierzo", "n_depositos": 2, "celdas_confirmadas": 5, "celdas_totales": 14, "area_km2": 12.48, "recintos_documentados": "[159] (MIOCENO INFERIOR) Gravas, arenas, limos y arcillas; [174] (PLEISTOCENO SUPERIOR) Arenas, limos y gravas. (Fondos "}}, {"type": "Feature", "geometry": {"type": "Point", "coordinates": [-6.63804, 42.365406]}, "properties": {"district_id": "dist_leon_cabrera", "nombre": "Leon Cabrera", "n_depositos": 2, "celdas_confirmadas": 5, "celdas_totales": 33, "area_km2": 36.18, "recintos_documentados": "[110] (BEROUNIENSE) Pizarras, areniscas y cuarcitas. Fm. Casaio, Fm. R; [111] (HIRNANTIENSE) Pizarras, a veces con canto"}}, {"type": "Feature", "geometry": {"type": "Point", "coordinates": [-6.307536, 42.412817]}, "properties": {"district_id": "dist_leon_maragateria", "nombre": "Leon Maragateria", "n_depositos": 3, "celdas_confirmadas": 10, "celdas_totales": 80, "area_km2": 88.39, "recintos_documentados": "[182] (PLEISTOCENO SUPERIOR) Bloques y cantos angulosos. (Canchales); [143] (ARAGONIENSE) Conglomerados de clastos de cu"}}, {"type": "Feature", "geometry": {"type": "Point", "coordinates": [-5.946632, 42.633843]}, "properties": {"district_id": "dist_leon_omana_cepeda", "nombre": "Leon Omana Cepeda", "n_depositos": 1, "celdas_confirmadas": 9, "celdas_totales": 33, "area_km2": 25.55, "recintos_documentados": "[130] (ARAGONIENSE) Limos, arenas y arcillas, con capas de conglomerad; [129] (ARAGONIENSE) Gravas y arenas; [232] (TURO"}}, {"type": "Feature", "geometry": {"type": "Point", "coordinates": [-5.868407, 42.654523]}, "properties": {"district_id": "dist_leon_omana_orbigo", "nombre": "Leon Omana Orbigo", "n_depositos": 1, "celdas_confirmadas": 3, "celdas_totales": 17, "area_km2": 21.94, "recintos_documentados": "[129] (ARAGONIENSE) Gravas y arenas; [274] (HOLOCENO) Gravas, arenas y limos. (Aluvial); [130] (ARAGONIENSE) Limos, aren"}}, {"type": "Feature", "geometry": {"type": "Point", "coordinates": [-6.102463, 42.233703]}, "properties": {"district_id": "dist_leon_valderia", "nombre": "Leon Valderia", "n_depositos": 1, "celdas_confirmadas": 3, "celdas_totales": 34, "area_km2": 47.7, "recintos_documentados": "[270] (PLEISTOCENO MEDIO) Cantos, gravas, arenas, limos y arcillas. (Fondos ; [265] (PLIOCENO) Gravas, cantos, arenas y "}}, {"type": "Feature", "geometry": {"type": "Point", "coordinates": [-4.968038, 39.652097]}, "properties": {"district_id": "dist_montes_de_toledo_jara", "nombre": "Montes De Toledo Jara", "n_depositos": 1, "celdas_confirmadas": 4, "celdas_totales": 20, "area_km2": 20.12, "recintos_documentados": "[153] (TREMADOCIENSE) Serie PÚRPURA: conglomerados, areniscas microcongl; [140] (OVETIENSE) Fm AZOREJO: areniscas, cuarc"}}, {"type": "Feature", "geometry": {"type": "Point", "coordinates": [-6.913891, 43.565456]}, "properties": {"district_id": "dist_occidente_asturiano", "nombre": "Occidente Asturiano", "n_depositos": 1, "celdas_confirmadas": 2, "celdas_totales": 6, "area_km2": 4.98, "recintos_documentados": "[57] (CUATERNARIO) Superficie de Rasa"}}, {"type": "Feature", "geometry": {"type": "Point", "coordinates": [-6.505095, 38.101395]}, "properties": {"district_id": "dist_ossa_morena_bodonal", "nombre": "Ossa Morena Bodonal", "n_depositos": 1, "celdas_confirmadas": 2, "celdas_totales": 19, "area_km2": 36.02, "recintos_documentados": "[144] (CAMBRICO INFERIOR) Tobas, metavulcanitas acidas, aglomerados vulcanoc; [151] (CAMBRICO INFERIOR) Tobas orbiculare"}}, {"type": "Feature", "geometry": {"type": "Point", "coordinates": [-6.250527, 37.970826]}, "properties": {"district_id": "dist_ossa_morena_monesterio", "nombre": "Ossa Morena Monesterio", "n_depositos": 2, "celdas_confirmadas": 2, "celdas_totales": 3, "area_km2": 1.53, "recintos_documentados": "[185] (CAMBRICO INFERIOR) Rocas silicatos cálcicos bandeadas"}}, {"type": "Feature", "geometry": {"type": "Point", "coordinates": [-5.381911, 37.738024]}, "properties": {"district_id": "dist_ossa_morena_penaflor", "nombre": "Ossa Morena Penaflor", "n_depositos": 3, "celdas_confirmadas": 5, "celdas_totales": 39, "area_km2": 41.01, "recintos_documentados": "[68] (VISEENSE) Gabros; [96] (NEOPROTEROZOICO) Esquistos, cuarcitas negras, gneises y migmatitas.; [125] (MESSINIENSE) G"}}, {"type": "Feature", "geometry": {"type": "Point", "coordinates": [-6.675624, 41.064176]}, "properties": {"district_id": "dist_salamanca_arribes", "nombre": "Salamanca Arribes", "n_depositos": 1, "celdas_confirmadas": 4, "celdas_totales": 41, "area_km2": 44.04, "recintos_documentados": "[48] (CARBONIFERO) Granitoides de dos micas. Facies \"alas de mosca\". ; [70] (CARBONIFERO) Granitoides de dos micas. Faci"}}, {"type": "Feature", "geometry": {"type": "Point", "coordinates": [-6.142148, 40.534121]}, "properties": {"district_id": "dist_salamanca_sierra_francia", "nombre": "Salamanca Sierra Francia", "n_depositos": 1, "celdas_confirmadas": 3, "celdas_totales": 47, "area_km2": 73.1, "recintos_documentados": "[55] (CARBONIFERO) Granitoides biotíticos. Facies equigranulares; [81] (CARBONIFERO) Leucogranitos. Facies de dos micas"}}, {"type": "Feature", "geometry": {"type": "Point", "coordinates": [-5.05839, 38.176325]}, "properties": {"district_id": "dist_valle_guadiato", "nombre": "Valle Guadiato", "n_depositos": 1, "celdas_confirmadas": 1, "celdas_totales": 1, "area_km2": 0.31, "recintos_documentados": "[125] (CAMBRICO INFERIOR) Cuarcitas feldespáticas tableadas."}}, {"type": "Feature", "geometry": {"type": "Point", "coordinates": [-6.133706, 41.583692]}, "properties": {"district_id": "dist_zamora_duero", "nombre": "Zamora Duero", "n_depositos": 1, "celdas_confirmadas": 10, "celdas_totales": 56, "area_km2": 57.99, "recintos_documentados": "[99] (TREMADOCIENSE) Gneises de grano fino y metagrauvacas feldespática; [41] (CARBONIFERO) Granitoides de dos micas. Fa"}}]}